ID,NAME,TYPE,ADDRESS,CITY,STATE,ZIP,CONTACT,PHONE,NOTES,ACTIVE,,,,,,,,,,,,
1,Agri Exotic Trading,donor,"700 Route 46 West,  Suite 5", Clifton ,NJ,07013, Stu KaminskyOwner & Operator ,973-546-8601,dd,1),,,,,,,,,,,,
2,Allendale Bar & Grille,donor,67 West Allendale Ave.,Allendale,NJ,07401, Michael Kunisch , 201-327-3197 ,  ,0),,,,,,,,,,,,
3,Allendale Eats,donor,101 West Allendale Ave,Allendale,NJ,07401, Denise Kimball-Owner , 201-825-0110 ,NULL,0),,,,,,,,,,,,
4,Alpine Country Club,donor,80 Anderson Avenue,Demarest,NJ,07627, Chef John Michael , 404-502-2120 ,  ,1),,,,,,,,,,,,
5,Auntie Annes Pretzels,donor,1 Garden State Plaza,Paramus,NJ,07652, Angel Mestre , 201-843-1388 ,NULL,0),,,,,,,,,,,,
6,ACME Allendale,donor,45 DeMercurio Drive,Allendale,NJ,07401, Gerry D\ Ascoli -Store Director , 201-934-9161 ,  ,1),,,,,,,,,,,,
7,A&P Bloomfield,donor,19 Belleville Avenue,Bloomfield,NJ,07003, Tony Wong , 973-429-8754 ,NULL,0),,,,,,,,,,,,
8,Stop and Shop Closter,donor,400 Demarest Ave.,Closter,NJ,07624, Heidi  VonGlahn Store Manager , 201-784-7180 , Eric Rec Mgr\r\n\r\nAllison Pissarro asst store mgr ,1),,,,,,,,,,,,
9,A&P Fairview,donor,425 Anderson Ave,Fairview,NJ,07022, Tony Alibrando , 201-941-2800 ,NULL,0),,,,,,,,,,,,
10,ACME Fort Lee,donor,2160 Lemoine Ave.,Fort Lee,NJ,07024, Joseph Alfonso-Store Director , 201-944-1145 , Danny Receiving ,1),,,,,,,,,,,,
11,ACME Hoboken,donor,614 Clinton Street,Hoboken,NJ,07030, Rich Stanel - Store Director , 201-795-1783 , Go in receiving door ,1),,,,,,,,,,,,
12,ACME Jersey City (18th),donor,125 18th Street,Jersey City,NJ,07310, John Bincoletto -Store Director , 201-499-0385 ,  ,0),,,,,,,,,,,,
13,ACME Mahwah,donor,117 Franklin Turnpike,Mahwah,NJ,07430, Mike Foley Store Director , 201-529-9775 , Michelle Rec Mgr ,1),,,,,,,,,,,,
14,ACME Midland Park,donor,137 Lake Street,Midland Park,NJ,07432, Maryann Holton- Store Director , 201-493-7050 ,  ,1),,,,,,,,,,,,
15,ACME Montclair,donor,510 Valley Road,Montclair,NJ,07043, Larry Zbikowski- Store Director , 973-746-3239 ,  ,1),,,,,,,,,,,,
16,Super Foodtown,donor,216 Old Tappan Road,Old Tappan,NJ,07675, Gary Hanke Mgr John Estevez Owner , 201-664-2954 ,  ,0),,,,,,,,,,,,
17,ACME Park Ridge,donor,199 Kinderkamack Road,Park Ridge,NJ,07656, Roger Quick- Store Director , 201-391-9610 , Jose Rego-- Asst Store Director\r\nBrad Rec Mgr ,1),,,,,,,,,,,,
18,A&P Pompton Lakes,donor,63 Wanaque Ave.,Pompton Lakes,NJ,07442, Peter Ferraro , 973-616-9960 ,NULL,0),,,,,,,,,,,,
19,ACME Saddle Brook,donor,75 Mayhill Street,Saddle Brook,NJ,07663, Eugene Pate- Store Director , 201-712-9191 ,  ,1),,,,,,,,,,,,
20,A&P Wayne,donor,560 Valley Road,Wayne,NJ,07470, Dave Devers , 973-305-1660 ,NULL,0),,,,,,,,,,,,
21,A&P Woodland Park,donor,1730 Route 46,Woodland Park, NJ,07424, Frank Urin , 973-812-8300 ,NULL,0)           ,,,,,,,,,,,,
22,Super Foodtown Nicholas Markets,donor,315 Pascack Road,Washington Township,NJ,07676, Matt Cavanagh- Store Director , 201-666-2185 ,"Yearly Letter and all Corporate Correspondence goes to \r\nDavid Maniaci-CEO\r\nNicholas Markets Foodtown\r\n195 Browertown Road\r\nWoodland Park, NJ 07424",1), , ,,,,,,,,,,
23, ACME Woodcliff Lake , donor , 520 Chestnut Ridge Road ,Woodcliff Lake,NJ,07677, Michael Foley-Store Director , 201-476-9800/9825 , Joel Rec Mgr \r\nJose Rec only on Wednesdays ,0)           ,,,,,,,,,,,,
24,ACME West New York,donor,55 Riverwalk Drive,West New York,NJ,07093, Matt Merville-Store Director , 201-272-1169 ,  ,1)           ,,,,,,,,,,,,
25,Auerpak Brand,donor,117 Seaview Drive,Secaucus,NJ,07094, Jim Maguire , 201-807-9292 , Jmaguire@auerpak.com ,1)           ,,,,,,,,,,,,
26,Aunt Gussie\s Cookies,donor,141 Lanza Avenue Bldg,Garfield,NJ,07026, David Caine-President , 973-340-4480 \next 10 ,NULL,0)     ,,,,,,,,,,,,
27,Bahama Breeze,donor,1600 Bergen Town Center,Paramus,NJ,07652, Brian Mendez-General Manager , 201-368-5860 ,  ,1),,,,,,,,,,,,
28, Barnert Temple , donor , 747 Route 208 South ,Franklin Lakes,NJ,07417, Alice AntiochTemple Administrator , 201-848-1800 ,  ,1)  ,,,,,,,,,,,,
29,Beaver Kill River Farms,donor,P.O Box 457,Tenafly,NJ,07670, Jill Nuckel-Owner ,  , CHRIS holt -assistant 201-214-5909 ,0)     ,,,,,,,,,,,,
30,Flick at Becton Dickinson,donor,1 Becton Drive,Franklin Lakes,NJ,07417, Tim Bacher- Food Service Director , 201-847-6558 , Jeff Cavanaugh -Chef ,1) ,,,,,,,,,,,,
31,Beef Town Provisions,donor,277 East 16th Street,Paterson,NJ,07524, Alexandra Reyes.... , 973-278-2333 ,NULL,0)     ,,,,,,,,,,,,
32,Bergen County Homeless Shelter,donor,120 South River Street,Hackensack,NJ,07601, Bill Veale-Director of Ops , 201-336-6475 ,  ,1)  ,,,,,,,,,,,,
33,Biala's Farm,donor,74 Celery Avenue,New Hampton,NY,10958, Doris Bialas\nRIngwood Farmers Market ,  ,NULL,0)  ,,,,,,,,,,,,
34,Bergen Regional Medical Center,donor,230 East Ridgewood Avenue,Paramus,NJ,07652,"Diane Jadoonauth, Director of Nutrition Services", 201-967-4644 ,  ,1)  ,,,,,,,,,,,,
35,Best of Bergen Fest Wainscot Media,donor,110 Summit Ave,Montvale,NJ,07645, Christine Hamel , 201-573-5541 ,  ,0)  ,,,,,,,,,,,,
36,Best Provisions Co Inc,donor,144 Avon Avenue,Newark,NJ,07108, Richie Ross , 973-242-5000 ,NULL,1)  ,,,,,,,,,,,,
37,Biscuit in the Basket,donor,32 Riverdale Street,Hillsdale,NJ,07642, \nMichael Kantor-Owner ,  ,NULL,0)     ,,,,,,,,,,,,
38,Cafasso\s Fairway Market,donor,1214 Anderson Ave.,Fort Lee,NJ,07024, David Cafasso Jr. , 201-224-7900 ,  ,1)  ,,,,,,,,,,,,
39,Capital Grille,donor,1 Garden State Mall,Paramus,NJ,07652, Chef Luis EstacioDavid BysonManging Patner , 201-845-7040 ,  ,0)  ,,,,,,,,,,,,
40,Carl Mellone & Sons,donor,49 Madison Street,Hackensack,NJ,07601, Carl Mellone Jr. , 201-343-0233 ,  ,1)  ,,,,,,,,,,,,
41,Carlo\s Bakery,donor,12 Wilsey Square,Ridgewood,NJ,07450, Meaghan Anderson -Store Mgr , 201-857-0972 ,  ,1)     ,,,,,,,,,,,,
42,Cavallini Middle School,donor,392 West saddle River Road,Upper Saddle River,NJ,07458, Ms. Geri Musumeci , 201-961-6450 ,NULL,1)     ,,,,,,,,,,,,
43,Champignon North America,donor,456 Sylvan Ave,Englewood,NJ,07632, Renata Araujo , 201-871-7211 ,NULL,0)  ,,,,,,,,,,,,
44,Chipotle Edgewater,donor,225 River Road,Edgewater,NJ,07020, Thomas Jala , 201-402-6275 , 14 The Promenade ,0)  ,,,,,,,,,,,,
45,Cognizant Technologies,donor,500 Frank W. Burr Blvd.,Glen Point,NJ,07028, Marylin , 201-801-0233 , (Glen Point Marriott) ,0)     ,,,,,,,,,,,,
46,Colonna Brothers,donor,4102 Bergen Turnpike,North Bergen,NJ,07047, Peter Colonna- President ,  ,  ,1)  ,,,,,,,,,,,,
47,Crestron,donor,7 Volvo Drive,Rockleigh,NJ,07647," Rosana Orrego\nAdministrator,  HR Relations ", 201-767-3400 ,NULL,1),,,,,,,,,,,,
48,D\Artagnan,donor,600 Green Lane,Union,NJ,07083, Nestor Villatoro-Ops Mgr , 973-344-0565 ,  ,1)  ,,,,,,,,,,,,
49,DePiero\s Country Farm Inc.,donor,300 West Grand Ave.,Montvale,NJ,07645, Glen DiPiero , 201-391-4576 ,NULL,0)  ,,,,,,,,,,,,
50,Dr. Praeger\s Sensible Foods,donor,9 Boumar Place,Elmwood Park,NJ,07407, Ellen Somberg , 201-703-1300 , Send thank you letter to Dianne Aronica-CFO ,1)  ,,,,,,,,,,,,
51,Dingman\s Dairy,donor,191 Pennsylvania Avenue,Paterson,NJ,07503, Ryan Kashishian-Ops Mgr , 973-881-8622 ,  ,1)  ,,,,,,,,,,,,
52,Driscoll Foods,donor,6 W Belt Parkway,Wayne,NJ,07470, Helder Coelho , 973-417-3630 ,  ,1)  ,,,,,,,,,,,,
53,DSM,donor,45 Waterview Blvd,Parsippany,NJ,07054, Chef Ryan Doum , 973-257-8555 ,  ,1)  ,,,,,,,,,,,,
54,DTCC,donor,570 Washington Blvd,Jersey City,NJ,07310, Dmitriy Ayzenberg-COEE\nEHS Specialist ,  ,NULL,0)  ,,,,,,,,,,,,
55,Restaurant Associates,donor,Deutsche Bank 100 Plaza One ,Jersey City,NJ,07311,"John Butler, Chef",,NULL,1)  ,,,,,,,,,,,,
56,Eastern Bergen County Board of Realtors,donor,411 Route 17 South,Hasbrouck Heights,NJ,07604,"Laura Rubinfeld, GM ", 201-288-5000 x104 ,NULL,0)  ,,,,,,,,,,,,
57,Florentine Gardens,donor,97 Rivervale Rd.,Rivervale,NJ,07645, Chef Jamie MilkmanKevin CatramboneMaria Daidone, 201-666-0444 ,  ,0)     ,,,,,,,,,,,,
58,Fabulous Foods,donor,5 Willow Street,Moonachie,NJ,07074, Fred Luberto -Owner , 201-896-8800 ,  ,1)     ,,,,,,,,,,,,
59,Fiesta,donor,255 Route 17 South,Wood-Ridge,NJ,07075, Chef Glen Ramkawsky , 201-939-5409 ,  ,1)  ,,,,,,,,,,,,
60,Fillo Factory,donor,10 Fairway Court,Northvale,NJ,07647, Denise LeBrun , (201) 439-1036 ,  ,1),,,,,,,,,,,,
61, Fontanarosa\ s Gourmet Specialty Foods , donor , 86 Lincoln Avenue , Totowa ,NJ,07512, Anthony Fontanarosa , 973-942-7784 ,NULL,1)        ,,,,,,,,,,,,
62,FreezePak Logistics- Carteret,donor,760 B Port Carteret Drive,Carteret,NJ, 07008, Mike Saoud President ,  , Ray Saoud 201-206-5646 ,1)     ,,,,,,,,,,,,
63,General Trading,donor,455 16th Street,Carlstadt,NJ, 07072, Andrea Abad-Owner , 201-935-7717 , Douglas Boyle-Controller\r\nDouglas gets Tax Letter also ,1)     ,,,,,,,,,,,,
64,Grand Lux Cafe,donor,1 Garden State Plaza,Paramus,NJ,07652, Jose Guardia-GM , 201-909-0399 ,  ,0)     ,,,,,,,,,,,,
65,"Glen Rock Inn, The",donor,222 Rock Road, Glen Rock ,NJ,07452,"Chef David Nehis\nVictor Quinn, Owner", 800-400-2362 ,NULL,0)     ,,,,,,,,,,,,
66,Hackensack University Medical Center,donor,30 Prospect Avenue,Hackensack,NJ,07601, Assistant Director Irma Newdorf , 201-996-2235 , Department of Nutrition & Food Management ,0)     ,,,,,,,,,,,,
67,Helping Hands Food Pantry,donor,349 Hillsdale Ave.,Hillsdale,NJ,07642, Laurie Darcy ,  ,NULL,0)     ,,,,,,,,,,,,
68,Hyatt Jersey City,donor,2 Exchange Place,Jersey City,NJ,07302, Chef Cathy Medrano , 201-469-1234 ,NULL,0)     ,,,,,,,,,,,,
69,The Iron Horse,donor,20 Washington Avenue,Westwood,NJ,07675,"Lee Tremble, Owner", 201-666-9682 ,  ,1)     ,,,,,,,,,,,,
70,Janet\s Quality Baked Goods,donor,29 Maple Avenue,Florida,NY,10921, Janet Picarelli\nRingwood Farmers Market ,  ,NULL,0)     ,,,,,,,,,,,,
71,Jerry\s Homemade,donor,410 South Dean Street,Englewood,NJ,07631, Mara Turci , 201-961-6450 ,NULL,0)     ,,,,,,,,,,,,
72,Key Impact,donor,550 Commerce Street,Franklin Lakes,NJ,07417, Felix Fermin , 201-368-1400 ,NULL,1)     ,,,,,,,,,,,,
73,Kevin\s Thyme,donor,614 North Maple Ave,Hohokus,NJ,07423, Kathy Tremble-Owner , 201-745-0963 ,NULL,0)     ,,,,,,,,,,,,
74,Knights of Columbus Westwood,donor,40 Crest Street,Westwood,NJ,07675, Doug Bailey , 201-410-9119 ,  ,0)     ,,,,,,,,,,,,
75,Kula for Karma,donor,PO Box 820,Franklin Lakes,NJ,07417, Andrea Sherman ,  ,NULL,1)     ,,,,,,,,,,,,
76,Macaluso\s,donor,161 Rea Avenue,Hawthorne,NJ,07506,"Elias Matar, Owner", 973-427-7320 ,  ,1)     ,,,,,,,,,,,,
77,Mahwah Bar & Grille The,donor,2 Island Rd.,Mahwah,NJ,07430, Chris Kunisch , 201-529-8056 ,NULL,1)     ,,,,,,,,,,,,
78,Mahwah Chamber of Commerce,donor,"1 International Blvd,  Suite 211",Mahwah,NJ,07430, Sharon Rounds ,  ,  ,1)     ,,,,,,,,,,,,
79,The Mann Company,donor,60 Demarest Drive,Wayne,NJ,07470, Ms. Chris Hatfield-Office Mgr , 973-317-1277 ,NULL,1)     ,,,,,,,,,,,,
80,March Health Foods,donor,141 Lanza Ave #29S,Garfield ,NJ,07026, Mr. D.H Kim CEO , 201-440-7001 , Ben Chae Purchasing Mgr ,1)     ,,,,,,,,,,,,
81,MEVO,donor,1024 Ash Drive,Mahwah,NJ,07430, Eric Fuchs-Stengel\nExecutive Director , 201-316-4888 ,NULL,1)     ,,,,,,,,,,,,
82,New Jersey Angels for Kids,donor,10 Dey Street,Fairfield,NJ,07004, Phil Stafford , 201-747-8706 ,NULL,1)     ,,,,,,,,,,,,
83,Olive Garden Ramsey,donor,66 Route 17 North,Ramsey,NJ,07446, Monique Salisbury-GM , 201-934-2953 ,  ,0)     ,,,,,,,,,,,,
84,Olive  Garden Paramus,donor,1620 Bergen Towne Center,Paramus,NJ,07652, Ian Green- GM, 201-368-1090 , Allison Meyer ,1)     ,,,,,,,,,,,,
85,Our Lady of Mt. Carmel,donor,1 passaic Street,Ridgewood,NJ,07450,"Rev. Msgr. Ronald J. Rozniak, Pastor", 201-444-2000 ,  ,1)     ,,,,,,,,,,,,
86,Panera Fairlawn,donor,23-02 Fairlawn Avenue,Fairlawn,NJ,07410, Denise Pena-Manager , 201-794-2790 , Radburn Shopping Center ,1)     ,,,,,,,,,,,,
87,Panera Northvale,donor,269B Livingston Street,Northvale,NJ,07647, Danielle Stallings , 201-784-2160 ,  ,1)     ,,,,,,,,,,,,
88,Panera Paramus Park Mall,donor,700 Paramus Park Mall,Paramus,NJ,07652, Rammier De La Cruz-Manager , 201-576-9779 ,  ,1)     ,,,,,,,,,,,,
89,Panera Paramus,donor,165 East State Route 4,Paramus,NJ,07652, Robert Rush , 201-368-0752 ,NULL,0)     ,,,,,,,,,,,,
90,Panera East Rutherford,donor,"Liberty Commons Shopping Center, 95 State Highway 17", East Rutherford,NJ,07073, Greg Marvin-MGR , 201-531-1480 ,NULL,0)     ,,,,,,,,,,,,
91,Park Ave Food Pantry,recipient,925 Allwood Road,Clifton,NJ,07012, Ben Halberstam ,  , Must stop there EVERY Monday ,0)     ,,,,,,,,,,,,
92,Park Ridge Animal Hospital,donor,94 Berthoud St,Park Ridge,NJ,07656, Dr.Donna Manderino , 201-391-9494 ,  ,1)     ,,,,,,,,,,,,
93,Paterson Farmers Produce,donor,459 E. Railway Avenue,Paterson,NJ,07503, Rosa Soares , 973-495-4536 ,  ,0)     ,,,,,,,,,,,,
94,ACME Jersey City (Stadium),donor,321 Route 440,Jersey City,NJ,07305, Gregory DeChirico- Store Director , 201-434-0417 , Anytime after 10am. ,1)     ,,,,,,,,,,,,
95,Pathmark Belleville,donor,115 Belmont Ave,Belleville,NJ,07109, David Benevente , 973-751-1041 ,NULL,0)     ,,,,,,,,,,,,
96,ACME  Bergenfield,donor,80 New Bridge Road, Bergenfield ,NJ,07621,, 201-385-2627 , CLOSED ,0)     ,,,,,,,,,,,,
97,Pathmark Hackensack,donor,405 Route 17 South,Hackensack,NJ,07601, Mona Salerno , 201-487-3745 ,NULL,0)     ,,,,,,,,,,,,
98,Pathmark Clifton,donor,85 Ackerman Ave,Clifton,NJ,07011, Bob Post , 973-253-2432 ,NULL,0)     ,,,,,,,,,,,,
99,ACME Edgewater,donor,481 River Road,Edgewater,NJ,07020, Patty Suchocki- Store Director , 201-840-8006 ,  ,1)     ,,,,,,,,,,,,
100,ACME Elmwood Park,donor,58 Broadway,Elmwood Park,NJ,07407, Luis (Lou) Carlos -Store Director , 201-791-2531 ,  ,1)     ,,,,,,,,,,,,
101,ACME Fair Lawn,donor,22-00 Maple Ave,Fair Lawn,NJ,07410, Gabe Truppi , 201-796-3332 ,  ,0)     ,,,,,,,,,,,,
102,Pathmark Irvington,donor,474-79 Lyons Ave,Irvington,NJ,07111, Mike Dixon , 973-923-8655 ,NULL,0)     ,,,,,,,,,,,,
103,Pathmark Montclair,donor,35 Lackawanna Plaza,Montclair,NJ,07042, Rich Stanel , 973-744-5505 ,NULL,0)     ,,,,,,,,,,,,
104,ACME Newark,donor,281-295 Ferry Street,Newark,NJ,07105, Paul Decastro- Store Director , 973-589-3922 , MIKE Azzolino Asst Mgr ,0)     ,,,,,,,,,,,,
105,Pathmark Ramsey,donor,10 Triangle Plaza,Ramsey,NJ,07446, JerryD\ Ascoli , 201-934-7600 ,NULL,0)     ,,,,,,,,,,,,
106,Stop and Shop South Orange,donor,407 Valley Street,South Orange,NJ,07079, Ralph Bartlow- Store Manager , 973-762-6608 ,  ,1)     ,,,,,,,,,,,,
107,ACME Weehawken,donor,4100 Park Ave,Weehawken,NJ,07086, David Benavente- Store Director , 201-867-8778 , Spencer Rec Mgr ,1)     ,,,,,,,,,,,,
108,Pepsi East Hanover,donor,15 Melanie Lane,Whippany,NJ,07981, Rafael Ponce-Warehouse Manager , 732-709-6730 ,  ,1)     ,,,,,,,,,,,,
109,Pepsi South Kearny,donor,680 Bellevue Turnpike,South Kearny,NJ,07032, Paul Pizzuto- Operations Mgr , 201-246-4935 ,  ,1)     ,,,,,,,,,,,,
110,The Perfect Bite,donor,747 Wilson Ave,Glendale, CA,91203, Todd Hauerland-Operations Director , 818-507-1527 , pick up at Freezepac ,0)     ,,,,,,,,,,,,
111,Personal Touch Catering,donor,148 Porter St,Hackensack,NJ,07601, John Policastro Owner , 201-390-4167 ,  ,1)     ,,,,,,,,,,,,
112,Peter\s Fish Market,donor,86 Godwin Avenue,Midland Park,NJ,07432, Steve Sclafani , 201-444-3331 ,  ,1)     ,,,,,,,,,,,,
113,Price Rite,donor,59 Outwater Lane,Garfield,NJ,07026, Horatio Arauz-Vera Mgr , 862-225-9716 , Steve Receiving ,1)     ,,,,,,,,,,,,
114,Prudential Center,donor,25 Lafayette Street,Newark,NJ,07102, Jim Leonard-SVP\nCommunity Investment , 973-757-6513 ,NULL,1)     ,,,,,,,,,,,,
115,Radicle Farm Company,donor,394 Broadway 5th Floor,Newark,NY,07104, Christopher O. Washington\nManaging Director , 914-356-6292 ,NULL,1)     ,,,,,,,,,,,,
116,Ramapo River Reserve,donor,9 Kingsley Evans Circle,Oakland,NJ,07436, Michele , 201-376-4157 ,NULL,1)     ,,,,,,,,,,,,
117,Red Lobster,donor,211 Route 17 South,Paramus,NJ,07652, Joe Decaro- General Manager , 201-967-7838 ,  ,0)     ,,,,,,,,,,,,
118,Ringwood Farmer\s Market,donor,Eat Local Inc.,PO Box 121,NJ,07456, Terry Powers ,  ,NULL,1)     ,,,,,,,,,,,,
119,Samsung (FLIK Intl),donor,"5th Floor, 85 Challenger Road", Ridgefield Park,NJ,07660, Michael Lewis Site Mgr , 201-229-4000 ,  ,1)     ,,,,,,,,,,,,
120,ShopRite Bayonne,donor,583 Avenue C,Bayonne,NJ,07002, Mr. Bill Petsch - Assistant Store Manager , 201-437-6000 ,"Frank Produce mgr,  Danny Manishko asst produce mgr",1)     ,,,,,,,,,,,,
121,ShopRite Emerson,donor,425 Old Hook Road,Emerson,NJ,07630, Robert Debrecky -Store Manager , 201-262-0012 , No loading dock before 8 am ,1)     ,,,,,,,,,,,,
122,ShopRite Fairlawn,donor,17-17 River Road,Fairlawn,NJ,07410, Sal Monteleone- Asst Store Mgr , 201-475-3750 , Produce major drop over past month. Jesus will discuss with new produce Mgr that all surplus donated. Jesus Checco  asst store mgr ,1)     ,,,,,,,,,,,,
123,ShopRite Garnerville,donor,56 West Ramapo Road,Garnerville, NY,10923, Mark Furey- Store Manager , 845-786-3006 , Pat Receiving\r\nDiana Riccardi asst mgr ,1)     ,,,,,,,,,,,,
124,ShopRite Hackensack,donor,500 South River Street,Hackensack,NJ,07601  , Carmine Curcio- Store Manager , 201-329-7470 ,  ,1)     ,,,,,,,,,,,,
125,ShopRite Hillsdale,donor,380 Broadway,Hillsdale,NJ,07642, Jose Marroquin -Store Mgr Store Manager , 201-666-7821 , Mike Callaghan Asst Mgr ,1)     ,,,,,,,,,,,,
126,ShopRite Hoboken,donor,900 Madison Avenue,Hoboken,NJ,07030, Jesus Checo Assistant Mgr , 201-792-6070 , Jesus Checo asst mgr ,1)     ,,,,,,,,,,,,
127,ShopRite Jersey City,donor,400 Luis Marin Blvd,Jersey City,NJ,07302, Peter Cavo-Store Mgr , 201-418-0300 , Matt Rec Mgr ,1)     ,,,,,,,,,,,,
128,ShopRite Lodi,donor,175 Main Street,Lodi,NJ,07644, Sasha Vidakovic -Manager , 973-365-2287 , Sal Monteleone asst store mgr ,1)     ,,,,,,,,,,,,
129,ShopRite Lyndhurst,donor,540 New York Avenue,Lyndhurst,NJ,07071, Mike Iannacone- Store Manager , 201-372-6181 ,"Ronnie Rec Mgr,  Andrew Celentano asst mgr ",1), ,,,,,,,,,,,
130, ShopRite New City #222 , donor , 66 North Main , New City, NY,10956, Slavko Profaca- Store Manager , 845-638-3218 , Tommy Rec Mgr ,1)     ,,,,,,,,,,,,
131,ShopRite New Milford,donor,250 River Road,New Milford,NJ,07646, Carmine Curcio-Manager , 201-262-8834 , Scott Rec mgr ,1)     ,,,,,,,,,,,,
132,ShopRite North Bergen,donor,3147 Kennedy Blvd.,North Bergen,NJ,07047, Doug McDaniell- Store Manager , 201-553-5700 ,  ,1)     ,,,,,,,,,,,,
133,ShopRite Northvale,donor,246 Livingston Street,Northvale,NJ,07647, Gregg Soriano- Manager , 201-784-0173 , Peter Sagri Asst Mgr\r\nMark Reilly- Rec Mgr\r\nLuis Produce Mgr ,1)     ,,,,,,,,,,,,
134,ShopRite Palisade Park,donor,201 Roosevelt Place,Palisade Park,NJ,07650, Richard Nam - Store Manager , 201-461-0219 , Jeff riggatano asst mgr\r\n\r\nRay and Pete Rec mgrs ,1)     ,,,,,,,,,,,,
135,ShopRite Passaic,donor,112 8th Street,Passaic,NJ,07055, Joe Cuti , 973-471-9801 ,NULL,0)     ,,,,,,,,,,,,
136,ShopRite Ramsey,donor,Rt. 17 & Franklin Turnpike,Ramsey,NJ,07446, Ms. Rea Noyes - Store Manager , 201-934-8989 , Manny martinez asst mgr james asst prod mgr tim prod mgr m-w-fri\r\nCfb tues and thurs\r\n\r\nChris Antonucci just transferred to Mgr west nyack ,1)     ,,,,,,,,,,,,
137,ShopRite Stony Point #268,donor,22 Holt Drive,Stony Point,NY,10980, Joe Schrammel- Store Manager , 845-429-0692 , Mark Receiving ,1)     ,,,,,,,,,,,,
138,ShopRite Tallman,donor,250 Rt. 59,Tallman,NY,10901, Olga Gonzalez Store Manager , 845-368-0713 , Jenn Huber Asst Mgr ,1)     ,,,,,,,,,,,,
139,ShopRite Wayne,donor,625 Hamburg Turnpike,Wayne,NJ,07470, John Oppici Store mgr , 973-595-0079 , Matt Rec Mgr ,1),,,,,,,,,,,,
140, ShopRite West Nyack , donor , 243 East Route 59 , West Nyack,NY,10994, Jim Mooney MGR , 845-353-7377 , Tommy Rec Mgr\r\nMet with Mercy Cunningham Asst Mgr...was at Garnervill ,1)     ,,,,,,,,,,,,
141,Sodexo at Sharp Electronics,donor,1 Sharp Plaza,Mahwah,NJ,07430, Charlie DeAngelo\nDirector of Food Services , 201-529-8410/8200 ,NULL,0)     ,,,,,,,,,,,,
142,St. Annes Church Fair Lawn,donor,15-05 St. Anne\s Street,Fair Lawn,NJ,07410, Father Joseph Doyle ,  ,  ,1)     ,,,,,,,,,,,,
143,St. Catherine of Bologna Church,donor,112 Erskine Road,Ringwood,NJ,07456,"Father Peter S. Glabik, Pastor",  ,NULL,0)     ,,,,,,,,,,,,
144,St. Catherine of Bologna School,donor,112 Erskine Road,Ringwood,NJ,07456, Sister Theresa Firenze , 973-962-7131 ,NULL,0)     ,,,,,,,,,,,,
145,Starbucks East Rutherford #10392,donor,95 Route 17 South,East Rutherford,NJ,07073, Tiana Munoz , 201-438-0584 ,NULL,0)     ,,,,,,,,,,,,
146,Starbucks Little Ferry #10643,donor,300-302 Route 46 West,Little Ferry,NJ,07643, Darlene McKnight , 201-373-0139 ,NULL,0)     ,,,,,,,,,,,,
147,Starbucks Pompton Lakes #14298,donor,45 Wanaque Avenue,Pompton Lakes,NJ,07442, Laura Dowding , 973-248-8261 ,NULL,0)     ,,,,,,,,,,,,
148,Starbucks Ramsey #7271,donor,8 West Main Street,Ramsey,NJ,07446, Jennifer Nolan , 201-760-0049 ,NULL,0),,,,,, ,,,,,,
149, Starbucks Ridgewood #879 , donor , 193 East Ridgewood Ave. , Ridgewood ,NJ,07450, Rachel Dobkins , 201-670-0690 ,NULL,0),,,,,,,,,,,,
150, Starbucks Westwood #11273 , donor , 102 Westwood Ave. ,Westwood,NJ,07675, Michelle Mielle , 201-358-0487 ,  ,1)     ,,,,,,,,,,,,
151,Stop & Shop Dumont,donor,20 Washington Avenue,Dumont,NJ,07628, joe gondek , 201-385-3652 ,  ,0)     ,,,,,,,,,,,,
152,Stop and Shop Paramus,donor,859 Route 17 South,Paramus,NJ,07652, Vera Kovalski -Mgr , 201-652-9830 ,NULL,0),,,,,,,,1)     (154,,,,
153, Stop & Shop Tenafly , donor , 34 West Railroad Avenue ,Tenafly,NJ,07670, Peter Romero-Mgr , 201-894-5111 ,  ,1),,,,,,,,,,,,
154, Stop & Shop Ringwood , donor , 130 Skyline Drive ,Ringwood,NJ,07456, Evie Ascencio-MGR , 973-962-0043 , Gary Blochinger Grocery Mgr ,1)     ,,,,,,,,,,,,
155,Stop & Shop Waldwick,donor,19 Wyckoff Avenue,Waldwick,NJ,07463, Dave Secor - Manager , 201-652-4055 ,  ,0)     ,,,,,,,,,,,,
156,"St. Joseph\s Hospital, Wayne",donor,224 Hamburg Turnpike, Wayne ,NJ,07470, Chef Maurice Alemeda , 973-956-3688 ,  ,1)     ,,,,,,,,,,,,
157,St. Joseph\s Regional Medical Center,donor,703 Main Street,Paterson,NJ,07503, Lara Zamajtuk (Director) ,  , Food & Nutrition Department ,1)     ,,,,,,,,,,,,
158,Takasago,donor,4 Volvo Drive,Rockleigh,NJ,07647, Carolyn Chen , 201-784-7329 ,NULL,1)     ,,,,,,,,,,,,
159,Temple Beth Rishon,donor,585 Russell Ave,Wyckoff,NJ,07481, Ms. Judy Ackerman , 201-337-6851 , 201-891-4466 ,1)     ,,,,,,,,,,,,
160,Temple Sinai,donor,1 Engle Street,Tenafly,NJ,07670, Hillary Hans , 201-568-3035 ,NULL,1)     ,,,,,,,,,,,,
161,Trader Joe\s Edgewater,donor,715 River Road,Edgewater,NJ,07020, Ashley Courtney- Captain , 201-945-5932 ,  ,1)     ,,,,,,,,,,,,
162,Trader Joe\s Clifton,donor,259 Allwood Road,Clifton,NJ,07012, Dave Scherer -Captain , 973-777-5020 ,  ,1)     ,,,,,,,,,,,,
163,Trader Joe\s Millburn,donor,187 Millburn Avenue,Millburn,NJ,07041, Mark Sorhage-Captain , 973-218-0912 ,  ,1)     ,,,,,,,,,,,,
164,Trader Joe\s Paramus,donor,404 North State Road 17,Paramus,NJ,07652, Andrew Antonik- Captain , 201-265-9624 ,  ,1)     ,,,,,,,,,,,,
165,Trader Joe\s Wayne,donor,1172 Hamburg Turnpike,Wayne,NJ,07470, Todd Clutterbuck- Captain , 973-692-0050 ,  ,1)     ,,,,,,,,,,,,
166,Trader Joe\s Westwood,donor,20 Irvington Street,Westwood,NJ,07675, Mary Fryman - Captain , 201-263-0134 ,  ,1)     ,,,,,,,,,,,,
167,UBS Restaurant Associates,donor,"1000 Harborside Financial Center, 2nd Floor", Jersey City ,NJ,07311,Jenn CollazoDirector Food and Conference Services, ,  ,0)     ,,,,,,,,,,,,
168,Vince Lombardi Rest Stop,donor,Mile marker 116 NJ TPKE,Ridgefield,NJ,07657, Sue Feliberty , 201-943-1171 ,  ,1)     ,,,,,,,,,,,,
169,Westmount Country Club,donor,728 Rifle Camp Road,Woodland Park,NJ,07424, Chef Dennis King , 973-256-2700 ,NULL,1)     ,,,,,,,,,,,,
170,Whitson\s Culinary Group,donor,830 Bond Street,Elizabeth,NJ,07201, Mike Fehnel-General Mgr , 908-251-5575 ,  ,0)     ,,,,,,,,,,,,
171,Wine & Spirit World,donor,626 North Maple Avenue,Ho-Ho-Kus,NJ,07423, Chuck Russo , 201-444-2033 ,NULL,1)     ,,,,,,,,,,,,
172,Whole Foods Edgewater,donor,905 River Road,Edgewater,NJ,07020, Jose Navas- Store Team Leader , 201-941-4000 , Go to receiving ,1)     ,,,,,,,,,,,,
173,Whole Foods Milburn,donor,2245 Springfield Avenue,Vauxhall,NJ,07088, Timothy Henderson-Marketing Team Leader , 908-688-1455 ,  ,0)     ,,,,,,,,,,,,
174,Whole Foods Paramus,donor,300 Bergen Town Center,Paramus,NJ,07652, Paul Koffa- Store Team Leader , 201-226-1244 , Keenan King Rec Mgr ,1)     ,,,,,,,,,,,,
175,Whole Foods Ridgewood,donor,44 Godwin Avenue,Ridgewood,NJ,07450, Ann Carideo- Store Team Leader , 201-670-0383 , Vannie shift leader\r\nJaquil Rec Mgr\r\nHave Carlos go to customer svc if Rec does not open door when ring bell... don\ t just leave ,1)     ,,,,,,,,,,,,
176,Whole Foods West Orange,donor,235 Prospect Avenue,West Orange,NJ,07052, Jose Navarro-Store Team Leader , 973-669-3196 , Anthony Rec Mgr ,1)     ,,,,,,,,,,,,
177,Evangelic Pentacostal Church,recipient,40-07 Broadway Ave,Union City,NJ,07087, Karla Salinas , 201-926-0474 ,  ,1)     ,,,,,,,,,,,,
178,Food Basics North Bergen,donor,1425 Kennedy Blvd,North Bergen,NJ,07047, Raja , 201-864-9300 ,  ,0)     ,,,,,,,,,,,,
179,St. Lucy\s,recipient,619 Grove Street,Jersey City,NJ,07310, Joe , 201-656-7201 , Go into back rear gate off 16th Street\r\nRing bell ,1)     ,,,,,,,,,,,,
180,Let\s Celebrate,recipient,48 Fairview Ave.,Jersey City,NJ,07304, Angelique Williams , 201-443-5438 ,  ,1)     ,,,,,,,,,,,,
181,Grace Apostolic Church,recipient,162 Ocean Ave,Jersey City,NJ,07305, Stenell Wilson , 908-265-3604 , Delivery to be made around the corner\r\n104 Pearsall Avenue ,1)     ,,,,,,,,,,,,
182,Faith Temple Baptist Church,recipient,678 Ocean Avenue,Jersey City,NJ,07305, Vanessa Black , 201-589-8114 , Vanessa Black is temporary contact. ,1)     ,,,,,,,,,,,,
183,United Methodist Church,recipient,237 Park Avenue,East Orange,NJ,07017, Audrey , 973-780-7301 , Or Corinne 862-205-9911 ,1),,,,,,,,,,,,
184,"Pathmark G,  Jersey City", donor , 420 Grand Street , Jersey City ,NJ,07302, Ken Rowe ,  , Anytime after 10am ,0)     ,,,,,,,,,,,,
185,PERC,recipient,108 36th Street,Union City,NJ,07087, Matt , 201-348-8150 , extension 14 ,1)     ,,,,,,,,,,,,
186,Greater Life Community Outreach Center,recipient,272 Chancellor Avenue,Newark,NJ,07112, Scott Davis , 973-907-6111 , Office number\r\n973-923-2264 x3 ,1)     ,,,,,,,,,,,,
187,Solid Rock Baptist Church,recipient,644 Chancellor Avenue,Irvington,NJ,07111, Deacon Henderson , 732-742-1514 ,  ,1)     ,,,,,,,,,,,,
188,Miracles Ground,recipient,189 Broad Street,Newark,NJ,07104, Nicolas , 973-441-8270 ,  ,0)     ,,,,,,,,,,,,
189,Salvation Army Union City,recipient,515 43rd Street,Union City,NJ,07087, Lieutenant Giovanni , 718-541-4083 , Parking lot busy between 10am-1pm\r\nCall Lieutenant for special deliveries\r\nvolunteers available until 5pm ,1)     ,,,,,,,,,,,,
190,The Hoboken Shelter,recipient,300 Bloomfield Avenue,Hoboken,NJ,07030, Jacyln , 347-731-0840 , Loading zone happening soon on Bloomfield\r\nFeeds 500 per day.\r\nLooking for salad and produce. ,1)     ,,,,,,,,,,,,
191,Campus Kitchen,recipient,39 Tuers Avenue,Jersey City,NJ,07306, Erich Sekel , 201-761-7395 , On St. Peter\ s University campus ,1)     ,,,,,,,,,,,,
192,Morning Star,recipient,7 Bragaw Ave,Newark,NJ,07112, Kevin Greenwood , 973-900-1387 ,  ,1)     ,,,,,,,,,,,,
193,Thessalonians Community Outreach,recipient,409-B Ocean Avenue,Jersey City,NJ,07305, Betty Martin , 347-282-3065 , Third and fourth Thursday of each month ,1)     ,,,,,,,,,,,,
194,West Ward Civil Development Program,recipient,107 Roseville Ave,Newark,NJ,07107, Loucinda  Brown , , Deliver to back of building on 7th ave ,0)     ,,,,,,,,,,,,
195,HelloFresh,donor,60 Lister Ave,Newark,NJ, 07105, Neville Holder-Warehouse Operations Manager , 201-887-7839 , Benjamin Watson-Director of Operations ,1)     ,,,,,,,,,,,,
196,Ironbound Community Corporation,recipient,29 Cortland Street,Newark,NJ,07105, Brandy Hannah-Barnes , 973-344-5949 ,"Or ask for Petra, Alexis or Emily",1),,,,,,,,,,,,
197,The Good Neighbor Baptist Church,recipient,100 Chancellor Avenue,Newark,NJ,07112, Reverend Rountree , 862-754-1121 , 3rd Friday of the month ,1)     ,,,,,,,,,,,,
198,Bethel Assembly of God,recipient,580 Mount Prospect Avenue,Newark,NJ,07104, Lisa Pastori , 862-371-4971 , Church phone 973-484-6660 ,1)     ,,,,,,,,,,,,
199,Beulah Grove Baptist Church,recipient,59-63 Springdale Avenue,Newark,NJ,07107, Tina KPelly , 973-342-1668 , Church number 973-482-4054 ,1)     ,,,,,,,,,,,,
200,Clear Way Missionary Baptist Church,recipient,747 13th Street,Newark,NJ,07103, Sandy Graves , 678-907-8857 , THEY ARE CLOSED FROM 7/25 FOR 6 WEEKS.  WILL UPDATE AS RECEIVE INFORMATION. ,1)     ,,,,,,,,,,,,
201,Good Neighbor Baptist Church,recipient,100 Chancellor Avenue,Newark,NJ,07112, Rev Louise Rountree , 862-754-1121 ,  ,0)     ,,,,,,,,,,,,
202,Goodwill Rescue Mission,recipient,79 University Ave,Newark,NJ,07102, Gerald Manning , 973-621-9560 , extension 103 ,1)     ,,,,,,,,,,,,
203,Marantha Seventh Day Adventist Church,recipient,890 South Orange Avenue,Newark,NJ,07106, Chantal Jochim , 862-224-4651 ,  ,0)     ,,,,,,,,,,,,
204,New Hope Food & Clothing,recipient,106 Sussex Avenue,Newark,NJ,07103, Alycia Green , 973-622-4547 x202 , Starting again on Tuesday 10/16\r\n\r\nEntrance is on Dey Street.  :) ,1)     ,,,,,,,,,,,,
205,United Deliverance Tabernacle,recipient,202 Hawthorne Avenue,Newark,NJ,07112, Deacon Bullock , 908-248-3597 , Church number 973-297-0081\r\nApostle Obery 908-576-1691 ,1)     ,,,,,,,,,,,,
206,Zion Baptist Church,recipient,459 Avon Avenue,Newark,NJ,07108, Debra Williams , 862-279-5370 ,  ,1)     ,,,,,,,,,,,,
207,CAFS Fair Lawn,recipient,2-15 35th Street,Fair Lawn,NJ,07410, Damaris Suarez , 201-359-0124 ,  ,1)     ,,,,,,,,,,,,
208,Zoe\s Place,recipient,58 Farnham Road,Garfield,NJ,07026, Tisha Mender , 201-740-7048 , House number 862-899-7000 ,0)     ,,,,,,,,,,,,
209,United Center,recipient,101 Hudson Street,Hackensack,NJ,07601, Maria Sanjurjo , 201-336-3320 ,  ,1)     ,,,,,,,,,,,,
210,A Village for Humanity,recipient,70 Ellis Avenue,Irvington,NJ,07111, Kaliyah Algram , 973-399-1393 ,  ,0)     ,,,,,,,,,,,,
211,CAFS Clifton,recipient,156 Martin Avenue,Clifton,NJ,07012, Lhercia Pierre-Paul , 201-364-4062 , This is the same people from the Maywood house.  Maywood house closed. ,1)     ,,,,,,,,,,,,
212,CAFS Park Ridge,recipient,124 Pascack Road,Park Ridge,NJ,07656, Linda Anderson , 201-615-9612 ,  ,1)     ,,,,,,,,,,,,
213,Salvation Army Passaic,recipient,550 Main Avenue,Passaic,NJ,07055, Captains Miguel & America Barriera , 302-897-1886 , or 302-897-2288 ,1)     ,,,,,,,,,,,,
214,Good Shepherd Mission,recipient,336 Broadway,Paterson,NJ,07501, Rev Michael Vieira , 973-742-9244 , Jonathan is kitchen guy ,1)     ,,,,,,,,,,,,
215,Hana Mission,recipient,10 Marshall Street,Paterson,NJ,07501, Richard Newton , 973-357-0066 , Rev Hank Kim ,1)     ,,,,,,,,,,,,
216,Hilltop Haven Family Shelter,recipient,36-38 Circle Avenue,Paterson,NJ,07522, Monica Piccirillo , 973-279-2333 , extension 219 ,1)     ,,,,,,,,,,,,
217,Millicent Fenwick House,recipient,369-371 Market Street,Paterson,NJ,07501, Lola Patterson , 973-278-7205 ,  ,1)     ,,,,,,,,,,,,
218,OASIS,recipient,59 Mill Street,Paterson,NJ,07501, Jayne Lovaglin , 973-881-8307 ,  ,1)     ,,,,,,,,,,,,
219,Paterson Police Athletic League,recipient,505 Chamberlain Avenue,Paterson,NJ,07502, Agostino Feola , 973-768-5266 , Or 973-956-7715 ,1)     ,,,,,,,,,,,,
220,St. Augustine Youth Program,recipient,159 Governor Street,Paterson,NJ,07501, Nancy Grier , 973-610-5449 , or 973-610-5449 ,1)     ,,,,,,,,,,,,
221,St. Paul\s Community Development Corp,recipient,451 VanHouten Street,Paterson,NJ,07501, Satira Lord , 973-710-3900 , Extension 424 ,1)     ,,,,,,,,,,,,
222,Geriatric Services  Inc. (Bright Side Manor),recipient,300 Teaneck Road, Teaneck ,NJ,07666, Hugo Medrano ,201-692-1000 ,Bright Side Manor,1)     ,,,,,,,,,,,,
223,Strengthen Our Sisters,recipient,563 Ringwood Avenue,Wanaque,NJ,07465, Betsy Lenke , 973-835-5636 ,  ,1)     ,,,,,,,,,,,,
224,Little Zion Church,recipient,154 Stephens Street,Belleville,NJ,07109, Rev McCain , 973-759-7358 ,  ,0)     ,,,,,,,,,,,,
225,Jewish Family Service (recipient),recipient,110 Main Ave,Passaic,NJ,07055, Lindsey Blashka , 561-445-6140 , Or \r\n973-777-7638 x184\r\npantry number ,1)     ,,,,,,,,,,,,
226,St. Peter\s Haven,recipient,380 Clifton Avenue,Clifton,NJ,07011, Zoe Ventresca , 973-546-3406 ,  ,1)     ,,,,,,,,,,,,
227,Cresskill Food Pantry,recipient,65 East Madison Avenue,Cresskill,NJ,07626, Carolyn Schultz , 201-569-5400 ,  ,0)     ,,,,,,,,,,,,
228,Hidden Treasures Ministries,recipient,26 Washington Street,East Orange,NJ,07017, Michele Riley , 347-608-5782 , 973-676-5100 ,0)     ,,,,,,,,,,,,
229,On Our Own,recipient,179 Main Street,Hackensack,NJ,07601, Nancy Dugan , 201-489-8402 , 2nd Floor ,0)     ,,,,,,,,,,,,
230,Food Hot Issue,donor,5801 West Side Avenue,North Bergen,NJ,07047, Lorraine , 201-496-4195 , Simon Lee gets end of year tax letter ,0)     ,,,,,,,,,,,,
231,Canaan Economic Community Development Corp,recipient,535 East 22nd Street,Paterson,NJ,07514, Ellen Watson , 973-684-7621 ,  ,1)     ,,,,,,,,,,,,
232,Catholic Family Food Pantry (Father English),recipient,435 Main Street,Paterson,NJ,07501, Carlos Roldan , 973-881-0280 , or 973-881-0127 ,1)     ,,,,,,,,,,,,
233,CAFS Hawthorne,recipient,159 Forest Avenue,Hawthorne,NJ,07506, Tanya Gray , 201-851-8758 , house is residential neighborhood ,1)     ,,,,,,,,,,,,
234,CUMAC,recipient,223 Ellison Street,Paterson,NJ,07505, Laura Purdy , 973-742-5518 ,  ,1)     ,,,,,,,,,,,,
235,Hispanic Multipurpose Service Center,recipient,991 East 23rd Street,Paterson,NJ,07513, Lydia Gonzalez , 973-684-3320 , delivering food for the shelter for young women and their children ,1)     ,,,,,,,,,,,,
236,Farmers Produce,donor,459 E. Railway Ave.,Paterson,NJ,07503, Rosa , 973-495-4536 ,  ,0)     ,,,,,,,,,,,,
237,NJAC - Passaic County Women\s Shelter,recipient,669 14th Avenue,Paterson,NJ,07504, Tanya , 973-881-1450 ,  ,0)     ,,,,,,,,,,,,
238,Key Foods Paterson,donor,465 Getty Avenue,Paterson,NJ,07503, Carlos ,  ,  ,0)     ,,,,,,,,,,,,
239,Tallman Bible Church,recipient,280 Route 59,Tallman,NY,10982, Pam Bove , 201-677-0669 ,"11/14, 11/25, 12,19",0)     , , ,,,,,,,,,,
240,Fine Fair  Belleville  ,donor,414 Main Street, Belleville ,NJ,07109, Jose Mendoza , 973-450-4990 ,,0)     ,,,,,,,,,,,,
241,Zion Hill Baptist Church (Nov 22nd),recipient,152 Osborne Terrace,Newark,NJ,07112, Althea Graves , 908-937-7174 , Oct 18 & 25\r\nNov 22\r\nDec 20 & 27\r\n\r\nThird and Fourth Fridays of the month\r\n(They serve on Saturdays) ,1)     ,,,,,,,,,,,,
242,Iglesia Jehova,recipient,157 Atlantic Street,Paterson,NJ,07503, Rev  Jesus Sevilla ,973-64107,,1)     ,,,,,,,,,,,,
243,Key Foods Glen Rock,donor,937 Lincoln Ave,Glen Rock,NJ,07452, GM Mael Montedeoca , 201-345-2261 ,  ,0)     ,,,,,,,,,,,,
244,Food Basic Passaic,donor,414 Van Houten Avenue,Passaic,NJ,07055, Jesus Perez , 973-777-1018 ,  ,0)     ,,,,,,,,,,,,
245,Helping Hand Food Pantry (AME William Chapel),recipient,133 Myrtle Avenue,Passaic,NJ,07055, Marva Stowe , 973-472-3256 ,  ,1)     ,,,,,,,,,,,,
246,Shalom Pantry (Ministerio Restauracion Cristiana),recipient,89 3rd Avenue,Hawthorne,NJ,07506, Isobel Calis , 973-777-4338 ,  ,1)     ,,,,,,,,,,,,
247,NJ Correction Milicent Fenwick House (CADC),recipient,369-71 Market Street,Paterson,NJ,07501, Debra Reid , 973-278-7205 ,  ,1)     ,,,,,,,,,,,,
248,Love of Jesus Family Church,recipient,385 Broadway,Paterson,NJ,07501, x , 973-742-6718 ,  ,1)     ,,,,,,,,,,,,
249,Community Baptist Church,recipient,505 Chamberlain Avenue,Paterson,NJ,07502, Edith McFadden , 973-341-3897 , Using Paterson Police Athletic League space temporarily. ,1)     ,,,,,,,,,,,,
250,Passion Church,recipient,593 Ringwood Ave,Wanaque,NJ,07465, Christine Brown , 973-879-0096 , Every Wednesday ,1)     ,,,,,,,,,,,,
251,First Reformed Church (Dec 20th),recipient,61 Main Street,Little Falls,NJ,07424, Pastor Emily , 973-785-1260 ,"Third Friday of the month.\r\nMeat, bread and produce",1)     ,,,,,,,,,,,,
252,St. Agnes,recipient,65 Union Avenue,Little Falls,NJ,07424, Patrick Keating , 973-803-0587 ,  ,1)     ,,,,,,,,,,,,
253,Trinity of God Church,recipient,160 Passaic Ave,Passaic,NJ,07055, Debbie Seminierio , 973-670-9089 , Deliveries vary.  Usually 1st Friday of each month ,0)     ,,,,,,,,,,,,
254,Wafa Organization,recipient,1009 Valley Rd,Wayne,NJ,07470, Wafaa Saad , 973-766-2406 ,  ,1)     ,,,,,,,,,,,,
255,First AME Zion (Hope for Ex-Offenders),recipient,329 Ellison Street,Paterson,NJ,07501, Rev Carl Phipps , 201-310-8110 ,  ,1)     ,,,,,,,,,,,,
256,Star of Hope,recipient,34 Broadway Street,Paterson,NJ,07505, James Ruffin , 973-742-1220 x20 , Only deliver the last Thursday every month.  Call before you go! ,0)     ,,,,,,,,,,,,
257,Key Foods Fairview,donor,288 Bergen Blvd,Fairview,NJ,07022, Lou Galarza , 201-945-5255 ,  ,0)     ,,,,,,,,,,,,
258,Bright Side Manor,recipient,300 Teaneck Road,Teaneck,NJ,07666, Hugo , 201-446-4472 ,  ,1)     ,,,,,,,,,,,,
259,St. Cecelia\s Church,recipient,55 Denarest Avenue,Englewood,NJ,07631, Bob , 201-265-7943 , Open 9am to 1pm\r\nOnly bread and non-perishables ,0)     ,,,,,,,,,,,,
260,New Light Baptist (Nov 18th),recipient,89 Dewey Street,Bloomfield,NJ,07003, Gail Edwards , 862-202-9950 , Third Monday of the month.\r\nChurch # 973-338-5888 ,1)     ,,,,,,,,,,,,
293,Bruno Ravioli,donor,174 Union Street,Hackensack,NJ,07601, Jim Pulliatte-Owner , 201-240-9908 ,  ,1)     ,,,,,,,,,,,,
261,Pathmark Newark (B),donor,167 Bergen Street,Newark,NJ,07103, Pete Hoadley , 973-242-2510 ,  ,0)     ,,,,,,,,,,,,
262,Bone Fish Grill,donor,601 From Road,Paramus,NJ,07652, Joe Cruz- Managing Partner , 201-261-2355 , Anytime after 9am ,0),,,,,,,,,,,,
263, Chipotle GSP , donor , Garden State Plaza , Paramus ,NJ,07652, Angel Mestre , 201-43-1388 , Door 14\r\nAfter 9am ,0)     ,,,,,,,,,,,,
264,Chipotle Paramus,donor,81 Route 4 West,Paramus,NJ,07652, Mynor Mendizalbal , 201-556-0180 ,  ,0)     ,,,,,,,,,,,,
265,Straight & Narrow (nothing on Nov 11),recipient,390 Straight Street,Paterson,NJ,07501, Gloria Price , 973-405-6675 , Passaic location closed\r\ngo to back door of 390 Straight Street. ,1)     ,,,,,,,,,,,,
266,United Passaic Organization,recipient,112 Washington Place,Passaic,NJ,07094, Debra Hansen , 973-472-3611 , Debra\ s cell phone is 862-414-5626 ,1)     ,,,,,,,,,,,,
267,Restaurant Associates @ Ernst & Young Secaucus,donor,200 Plaza Drive,Secaucus,NJ,07094, Jessica Perez - Director of Food Services , 201-872-2200 ,  ,0)     ,,,,,,,,,,,,
268,Chipotle East Rutherford,donor,40 Route 17 North,East Rutherford,NJ,07073, Jesus Santos , 201-549-5302 ,  ,0)     ,,,,,,,,,,,,
269,ShopRite Wallington,donor,375 Paterson Avenue,Wallington,NJ,07057, Sue Giordano- Store Manager , 201-508-8000 , Joe Rec Mgr\r\nRudy Produce Mgr ,1)     ,,,,,,,,,,,,
270,Mount Moriah (ON HOLD),recipient,11 Tulip Street,Passaic,NJ,07055, Taisha , 862-218-4518 , CLOSED FEBRUARY AND MARCH 2019 ,1)     ,,,,,,,,,,,,
271,Well of Hope,recipient,207 Broadway,Paterson,NJ,07501, Jody McClinton , 973-23-0700 , extension 23\r\n\r\nAcross the street from White Castle ,0)     ,,,,,,,,,,,,
272,New St. Mark Church,recipient,100 Palisade Ave,Westwood,NJ,07675, Jon Givins , 973-919-3661 , 201-666-0348\r\n201-722-8879 ,0)     ,,,,,,,,,,,,
273,Community Outreach Services,recipient,199 6th Avenue,Paterson,NJ,07524, Rev Wayne Brown , 973-609-4478 ,  ,1)     ,,,,,,,,,,,,
274,Rhema Worship Center,recipient,Carver Park (brown building),Hackensack,NJ,07601, Pastor Holly , 201-741-0696 , Between 1st and 2nd Street\r\nEnter on Clay Street ,1)     ,,,,,,,,,,,,
275,Seventh Day Adventist of Montclair (on hold),recipient,15 Elmwood Avenue,Montclair,NJ,07042, Natalee Nelson , 646-436-6265 , Call ONE HOUR before you will get there!! ,1)     ,,,,,,,,,,,,
276,The Two of You,recipient,67 Rose Terrace,Newark,NJ,07108, Regina , 201-618-4857 , Call to ask if she wants a delivery ,0)     ,,,,,,,,,,,,
277,The Little Zion UAME Church (Nov  14th & 21st),recipient,154 Stephen Street,Belleville,NJ,07109, Clarice or Josephine , 973-759-7358 , Thursdays \r\n2nd and 4th week each month (except for Nov)\r\n\r\nMs. Edgar 973-868-0240 ,1)     ,,,,,,,,,,,,
278,New Milford Senior Center,recipient,275 River Road,New Milford,NJ,07646, x , 201-599-7565 ,"Fruit, pastries and bread",1)     ,,,,,,,,,,,,
279,Sharp USA (Sodhexo),donor,100 Paragon Drive,Montvale,NJ,07645, Alecia Mastellone- Food Service Manager -Sodhexo @ Sharp , 201-529-8410 ,After 2pm - go to loading dock- ring bell\r\nin cafeteia - Alecia Mastellone ,1)     ,,,,,,,,,,,,
280,True Witness Church (Nov 22nd),recipient,234 Godwin Avenue,Paterson,NJ,07501, Barbara Gilbert , 862-202-5963 , 4th Fridays\r\nBarbara\ s Cell Phone 862-295-9698\r\nBarbara\ s email bbggilbert@yahoo.com ,1)     ,,,,,,,,,,,,
281,ABC,donor,1 Main,Clifton,NJ,07014, x , x ,  ,0)     ,,,,,,,,,,,,
282,Iron Horse,donor,20 Washington Ave,Westwood,NJ,07675,  ,201-666-9682,  ,0)     ,,,,,,,,,,,,
283,Nursery Stock 2Go,donor,125 River Drive,Passaic,NJ,07059, Rosa Huitzitzilin , 973-883-6545 , 1 watermelomN bin of sugar pumpkins for cooking it\r\n\r\nBin will be on a pallet ,0)     ,,,,,,,,,,,,
284,St.Johns Cathedral,donor,353 East Clinton Ave,Tenafly,NJ,07670, Andy Georgiou , 201-567-5072 ,  ,0)     ,,,,,,,,,,,,
285,Elizabeth Morrow School,donor,435 Lydecker Street,Englewood,NJ,07631,, 201-568-5566 ,  ,1)     ,,,,,,,,,,,,
286,Pepsi Piscataway,donor,2200 New Brunswick Ave,Piscataway Township,NJ,08854, Damien Jackson-Supply Chain Associate Manager , 732-424-3000 ,  ,1)     ,,,,,,,,,,,,
287,A&P Corporate Office,donor,2 Paragon Drive,Montvale,NJ,07645, Sue Voelkner ,  ,  ,0)     ,,,,,,,,,,,,
288,Lucille Francisco,donor,19 Elm St,Tenafly,NJ,07670,  , 201-568-0858 ,  ,1)     ,,,,,,,,,,,,
289,Charles Severino,donor,112 West Grove,Bogota,NJ,07603, Charles Severino , 201-723-4658 , 1 turkey ,0)     ,,,,,,,,,,,,
290,Salvation Army Paterson,recipient,31 Van Houten Street,Paterson,NJ,07505,  , 973-742-1126 ,  ,0)     ,,,,,,,,,,,,
291,The Childrens Place,donor,500 Plaza Drive,Secaucus,NJ,07094, Anissa Kurtz , 201-453-7745 ,  ,1)     ,,,,,,,,,,,,
292,Demarest Middle School,donor,568 Piermont Rd,Demarest,NJ,07627, Ms.Corinne Conti , 732-687-8043 ,  ,1)     ,,,,,,,,,,,,
294,General Dairy Deli Inc.,donor,155 Broad St,Carlstadt,NJ,07072,  ,  ,  ,0)     ,,,,,,,,,,,,
295,Stumptown Coffee Roasters Melrose Storage,donor,400 Kennedy Drive,Sayerville,NJ,07676, Jeff Flakker Ops at Melrose , 800-352-5571 ,"STUMPTOWN CONTACT Michael Naideau\r\n100 SE Salmon St\r\nPORTLAND,OR 97214",1)     ,,,,,,,,,,,,
296,ShopRite Paulison,donor,503 Paulison Ave,Passaic,NJ,07055, Rafael Cuellar- Owner , 973-471-0868 , non-Inserra store ,1)     ,,,,,,,,,,,,
297,Greta Corbitt,donor,311 Murray Ave,Englewood,NJ,07631,  ,  , Bacon ,1)     ,,,,,,,,,,,,
298,Rockland Community College,donor,145 College Road,Suffern,NY,10901,  ,  , Tax letter goes to Rebecca Rund US Gymnastics Development Center II Parents Association 6 Leighton Place Mahwah Nj 07430 ,0)     ,,,,,,,,,,,,
299,Alkazone,donor,200 South Newman Street,Hackensack,NJ,07601, Johan Bae Sales and Product Mgr , 201-880-7966 ,  ,0)     ,,,,,,,,,,,,
300,Eclipse Lodge #259 F&AM,donor,169 Park Ave,Rutherford,NJ,07070, Chris White , 201-575-9657 ,  ,1)     ,,,,,,,,,,,,
402,Finlandia Cheese Inc.,donor,2001 Route 46 East Suite 303,Parsippany,NJ,07054, Kristine Lukachyk-Customer Service Mgr , 973-404-1403 ,"Pickup at:\r\n Halls Warehouse \r\n501 kentile Road\r\nSouth plainfield, NJ  07080",1)     ,,,,,,,,,,,,
535,East Brook Middle School,donor,190 Spring Valley Road,Paramus,NJ,07652,"Giovanni Aliano, Teacher",  973-632-9588  ,  Service Day 5/17  , 1) ,,,,,,,,,,,,
301,Murrays Chicken care of Great American Foods,donor,50 Avenue L,Newark,NJ,07105,  , 973-589-6363 , Dean Koplik\r\nMURRAY\ S Chicken\r\n5190 Main Street\r\nSouth Fallsburg NY 12779 ,1)     ,,,,,,,,,,,,
302,WOW! Nutrition (US) LLC,donor,120 North b Central Ave suite 2S,Ramsey,NJ,07446, Jean Savage Marketing Mgr , 201-962-9241 ,  ,0)     ,,,,,,,,,,,,
303,Foodtown Old Tappan,donor,216 Old Tappan Road,Old Tappan,NJ,07675, John Estevez-Owner , 201-497-6739 ,  ,0)     ,,,,,,,,,,,,
304,Darlene Piserchia,donor,322 McKinley Blvd,Paramus,NJ,07652,  , 201-666-1225 ,  ,0)     ,,,,,,,,,,,,
305,Computershare,donor,480 Washington Blvd.,Jersey City,NJ,07310, Samantha Willis , 201-680-4046 , Holiday non-perishable food drive ,1)     ,,,,,,,,,,,,
306,Dressbarn Corporate,donor,933 MacArthur,Mahwah,NJ,07430, Theresa Ruscillo , 551-777-6608 , Chef Luke office phone 551-777-6071 ,1)     ,,,,,,,,,,,,
307,Lipari Sausage,donor,220 6th Ave,Hawthorne,NJ,07506, Joe Manganella Owner ,  ,  ,0)     ,,,,,,,,,,,,
308,Jewish Family Food Pantry (donor),donor,1 Katherine Avenue,Passaic,NJ,07055,  ,  , Use this one when they donate product to us.\r\nThanks!! ,0)     ,,,,,,,,,,,,
309,Preakness Hills Country Club,donor,1050 Ratzer Road,Wayne,NJ,07470, Chef Chris Passaro , 201-232-7112 , Call Chris when on way ,1)     ,,,,,,,,,,,,
310,Holly Foods LLC,donor,po box 304,Midland Park,NJ,07432, Paul Holly , 551-574-0177 ,  ,0)     ,,,,,,,,,,,,
396,HelloFresh Corporate,donor,40 West 25th St. 7th Floor,New York, NY,10010, Kim Strauss -Public Relations ,  , Kim Strauss Public Relations Mgr ,1)     ,,,,,,,,,,,,
311,Stop and Shop NYM,donor,287 Bowman Ave 2nd Floor,Purchase, NY,10577,"Cindy Carrasquilla- Manager,  Public Relations & Community Relations ", 914-251-2806 ,  ,1)     ,,,,,,,,,,,,
379,St. Elizabeth\s Episcopal Church,donor,169 Fairmount Rd.,Ridgewood,NJ,07450, Anne Dowling , 201-444-2299 ,"Put 212 California Street in GPS\r\nThis is the back parking lot\r\nDrive thru stone archway,  go to double glass door. \r\nOffice is on left.,  go to double glass door. \r\nOffice is on left. ",1)     ,,,,,,,,,,,,
312,Le Bon Choix,donor,11 Godwin Ave,Ridgewood,NJ,07450, Jeff Romano- Owner , 201-689-0400 ,  ,1)     ,,,,,,,,,,,,
313,Sweet Love and Cake,donor,216 Rock Road,Glen Rock,NJ,07446, Nicole Morano- Owner , 201-857-0279 ,  ,1)     ,,,,,,,,,,,,
314,Myrna Block,donor,161 Tekening Drive,Tenafly,NJ,07670, Myrna Block ,  , Meat ,1)     ,,,,,,,,,,,,
315,FoodHotIssue,donor,5801 West Side Ave,North Bergen,NJ,07047, Lorraine ,  , President Simon Lee ,0)     ,,,,,,,,,,,,
316,Banana Distributors,donor,750 Drake Street,Bronx , NY,10474,  , 212-470-6785 ,  ,0)     ,,,,,,,,,,,,
317,Fruit Kraze Company,donor,314 Route 105,Highland Mills, NY,10930, Phil Raich- Chairman ,  , Shipment was From Banana Distributors ,0)     ,,,,,,,,,,,,
318,ACME  Markets,donor,75 Valley Stream Parkway,Malvern,PA,19355, Sherry Caldwell- Director of Marketing , 610-889-4188 ,  ,0)     ,,,,,,,,,,,,
319,Mary Jean Kettler,donor,264 Glenn Road,Woodcliff Lake,NJ,07677, Mary Jean Kettler ,  ,  ,1)     ,,,,,,,,,,,,
320,Jewish Community Center of Paramus,donor,304 East Midland Ave,Paramus,NJ,07652, Norman Levine- Executive Director ,  ,  ,0)     ,,,,,,,,,,,,
321,New Jersey Food and Clothing Rescue,donor,p.o. box  106,Lodi,NJ,07644, Phil Stafford-Director , 201-747-8706 , Dry goods ,1)     ,,,,,,,,,,,,
322,Off the Hook Seafood,donor,126 Greenwood Avenue,Midland Park,NJ,07432, John Sclafani- Owner , 201-444-8895 ,  ,1)     ,,,,,,,,,,,,
451,Shiloh AME Zion Church (Nov 20),recipient,129 Williams Street,Englewood,NJ,07631, Reverend John Givens , 973-919-3661 ,"Mr. Carter Jackson 201-837-2745\r\nJanie Wright 201-569-8413\r\nEssie Adam 201-456-9178 (cell)\r\n\r\nMarch 14, April 18, May 16, June 20, July 18, \r\nAug 15, Sept 18,  Oct 16, Nov 13, Dec 18",1)     , , , , , , , , ,,,,
323,New York Produce,donor,125 Seaview Drive,Secaucus,NJ,07094, Roger Fernandez-Pesident , 201-223-0909 , Marc Greenberg \r\nWarehouse contact - George Michael ,1)     ,,,,,,,,,,,,
324,UrbanaGreens,donor,30 South Kingman Road,South Orange,NJ,07079, Zachary Buck- Founder , 917-397-0041 ,  ,1)     ,,,,,,,,,,,,
325,Fava Produce,donor,295 East Railway Ave,Paterson,NJ,07503, Michael Fava-Owner , 973-689-7511 ,  ,0)     ,,,,,,,,,,,,
326,Aramark at Izod Center,donor,50 New Jersey 120,East Rutherford,NJ,07073, Brian Galbally- General Manager , 201-527-7573 ,  ,0)     ,,,,,,,,,,,,
327,Biddy O\Malleys - Northvale,donor,191 Paris Ave,Northvale,NJ,07646, Noel O\ Malley -Owner ,  ,  ,1)     ,,,,,,,,,,,,
328,Cafe Amici,donor,315 Franklin Ave,Wyckoff,NJ,07481, Arthur Toufayan Executive Chef-Owner , 201-848-0198 ,  ,0)     ,,,,,,,,,,,,
329,Dollar Crazy,donor,484 Kinderkamack Road,Emerson,NJ,07630, Ian Stadd , 201-483-9060 ,  ,0)     ,,,,,,,,,,,,
330,Medieval Times Dinner and Tournament,donor,149 Polito Ave,Lyndhurst,NJ,07071, Ryan Ruppert -Marketing Associate , 201-933-2220 ,  ,0)     ,,,,,,,,,,,,
331,Stryker Orthopaedics,donor,325 Corporate Drive,Mahwah ,NJ,07430, Patty , 201-831-5776 ,  ,1)     ,,,,,,,,,,,,
434,Warehouse (Drop Off),recipient,260 Secaucus Road,Secaucus,NJ,07094, Jennifer Nelson , 201-449-7395 , Must let Anthony AND Julie know what you are dropping off and how much. ,1)     ,,,,,,,,,,,,
332,Residence,donor,112 West Grove St,Bogota,NJ,07603, Charles Severino , 201-723-4658 ,  ,0)     ,,,,,,,,,,,,
333,Fair Lawn Jewish Center,donor,10-10 Norma Ave,Fair Lawn,NJ,07410, Claudia Judelman Executive Director ,  , Prepared ,1)     ,,,,,,,,,,,,
334,Christ Church Hackensack,donor,215 State Street,Hackensack,NJ,07601, Reverend Gerhardt ,  , Prepared ,1)     ,,,,,,,,,,,,
335,The Perfect Bite (co FreezePak),donor,760 B Port Carteret Drive,Carteret,NJ,07008, Jon Saoud ,  ,"For end of year letter - \r\n747 Wilson Avenue\r\nGlendale, CA 91203\r\nTodd Hauerland, VP of Logisitics\r\n818-507-1527",1)     , ,,,,,,,,,,,
336,River Palm Terrace,donor,1416 River Road,Edgewater,NJ,07020, John Campbell- Owner , 201-424-2013 ,  ,1)     ,,,,,,,,,,,,
337,Ben Pollinger,donor,24 Beatrice Place,Oradell,NJ,07649, Ben Pollinger , 201-220-3780 ,  ,1)     ,,,,,,,,,,,,
338,Mount Olive Baptist Church,recipient,400 Arlington Avenue,Jersey City,NJ,07304, Harvey Drayton , 201-344-5200 , Located on corner of Arlington & McDougal\r\nCan take large deliveries / Pepsi\r\nNeeds to be called ahead so volunteers are there\r\nChurch phone number 201-432-8795 ,0)     ,,,,,,,,,,,,
339,New Ephesus Baptist Church,recipient,175 Brookwood Street,East Orange,NJ,07018, Roselyn Daniels , 908-672-4992 ,Delivery to front of church. Women volunteers\r\nCan take frozen canned goods and dry goods\r\nLimited produce  prepared and perishable\r\nJan 12 & 26  Feb 9 & 23  Mar 9 & 23  Apr 6 & 20  May 4 & 18  Jun 1 & 15 & 29  Jul 13 & 27  Aug 10 & 24  Sep 7 & 21  Oct 5 & 19  Nov 2 & 16 & 30  Dec 14 & 28  1)     ,1)     , , , , , , , , , , , , 
340,Novo,donor,37 Chestnut Street,Ridgewood,NJ,07450, Chef Elie Kahlon , 201-444-4910 , Pickup every tuesday ,1)     ,,,,,,,,,,,,
341,Riviera Produce Corporation,donor,205 Jackson St,Englewood,NJ,07631,"Ben Friedman,  Abe Friedman", 201-227-7105 ,  ,1)     ,,,,,,,,,,,,
342,Melrose-Alltemp Storage,donor,400 Kennedy Drive,Sayerville,NJ,08872, Jeff Flakker Ops Mgr , 732-316-4740 , Louis Zezza (Warehouse manager at Melrose)\r\n732-335-6224\r\nlouis@alltemp.biz ,1)     ,,,,,,,,,,,,
343,Valley Hospital,donor,233 N Van Dien,Ridgewood,NJ,07450, Molly Schenk , 201-447-8166 ,  ,1)     ,,,,,,,,,,,,
344,Biddy O\Malley\s - Englewood,donor,36 North Van Brunt Street,Englewood ,NJ,07631, Noel O\ Malley-owner , 845-541-1093 ,  ,1)     ,,,,,,,,,,,,
345,NJCDC - Spruce Street,recipient,16 Spruce Street,Paterson,NJ,07501, Boris Zaydel , 862-221-1138 , Transitional group home for 10 young men that have aged out of foster.\r\n\r\nPrepared food and/or easy to prepare food only please. ,0)     ,,,,,,,,,,,,
346,Toys R US Flik-Compass Hospitality,donor,1 Geoffrey Way,Wayne,NJ,07470, Matthew Watkins , 602-321-9375 , Ms.Pat Carp\r\nmatthew.watkins@compass-usa.com ,0)     ,,,,,,,,,,,,
347,Mount Olive Baptist Church (Hope for Ex-Offenders),recipient,260 Central Avenue,Hackensack,NJ,07601, Reverend Carl Phipps , 201-310-8110 , Door 2\r\nPepsi deliveries would be great too! ,1)     ,,,,,,,,,,,,
348,Critical Point,donor,11B Commerce Way,Totowa,NJ,07512, Jean , 973-256-6500 x205 ,  ,1)     ,,,,,,,,,,,,
349,EISAI,donor,155 Tice Boulevard,Woodcliff Lake,NJ,07677, Victor , 551-226-3257 , Cafeteria of pharmaceutical company ,0),,,,,,,,,,,,
350, Greenland Dairy , donor , 20 West End Road ,Totowa,NJ,07512, Jose Rojas , 201-628-5019 ,  ,1)     ,,,,,,,,,,,,
351,Trinity Baptist Church,recipient,213 East Passaic Street,Hackensack,NJ,07601, Rosetta Benders , 862-225-9473 , 201-421-9581\r\nOr Juliet Washington 201-487-3656\r\nSummer Camp July & August\r\nnoon day bible study with lots of volunteers - Tues ,1)     ,,,,,,,,,,,,
352,Unitarian Society of Ridgewood,donor,113 Cottage Place,Ridgewood,NJ,07450, 201-444-6225 ,  ,  ,1)     ,,,,,,,,,,,,
353,Wawa,donor,150 Essex Street,Lodi,NJ,07644, Mr. Armando- General Mgr , 201 843 2941 , Food Donation Connection/Harvest Program ,1)     ,,,,,,,,,,,,
354,Jewish Family Services (Donor),donor,110 Main Ave.,Passaic,NJ,07055, Lindsey Blashka , 551-445-6140 ,"973-777-7638 x184\r\npantry phone number\r\n\r\npull into gated parking lot.\r\ndoor in back of building in parking lot.\r\nfood pantry is downstairs,  but stairs on side of building has ramp.  And volunteers will be there.",1)     ,,,,,,,,,,,,
355,Mosner Family Brands,donor,355 Food Center Drive Unit E8,Bronx , NY,10474, Ryan Boenitz- HACCP Coordinator , 718-328-5600 x 2232 ,  ,1)     ,,,,,,,,,,,,
356,40Dreams Catering,donor,376 Hollywood Ave,Fairfield,NJ,07004, Adrienne Fudge , 201-207-7341 ,"Name of pick up location is Culinary Concepts. Pick Up every Thursday.  Do not arrive before 8am.  \r\n\r\nMailing address:\r\n24 Westmore Avenue\r\nMaplewood, NJ 07040",0)     ,,,,,,,,,,,,
357,Center for Food Action,donor,90 Ridge Road,Mahwah,NJ,07430, Linda ,  , Behind Ramapo Ridge Middle School ,1)     ,,,,,,,,,,,,
358,Fresh Line Produce (Supreme Cuts),donor,200 Corporate Drive,Mahwah,NJ,07430, Robert Guillen- Term Buyer , 973-767-3540 ,  ,1)     ,,,,,,,,,,,,
359,Clinton Memorial AME Zion,recipient,151 Broadway,Newark,NJ,07104, Deborah Horton , 862-596-1789 , Very close to Miracle Grounds and Bethel.\r\n\r\nPull into parking lot. ,0)     ,,,,,,,,,,,,
360,Dora\s Naturals,donor,21 Empire Blvd.,South Hackensack,NJ,07606, Bruce Goria- Director of Marketing , 201-669-0421 ,  ,1)     ,,,,,,,,,,,,
361,Blue Apron (Preferred Storage),donor,100 Polar Way,Jersey City,NJ,07305, Challey Comer , 201 915 3800 ,Preferred freezer storage. They request 24-hours notice for pick ups. Once you arrange a time with them  they will provide you with a bill of lading with a reference number for the driver.\r\n\r\nLocation: Preferred Storage  100 Polar Way Jersey City NJ 07305\r\n\r\nContact: 201 915 3800 follow the prompt for the shipping department ,0), ,0)     ,,,,,,,,,,
362,Mamber House,donor,204 Fawn Lane,Franklin Lakes,NJ,07417 , Carol Mamber , 201-848-1445 , one time donation from Shiva ,1)     ,,,,,,,,,,,,
363,Blue Apron (Fulfillment Center),donor,149 Industrial Drive,Jersey City,NJ,07305, Evan Schwartz- Inventory Control Manager , 248-515-0444 , This is Saturday pick ups at 5pm. ,0)     ,,,,,,,,,,,,
364,Holland Garden Housing,recipient,241 16th Street,Jersey City,NJ,07310, Martin Banks , 201-779-8556 , Another contact is Belinda Council 973-757-4651 ,1)     ,,,,,,,,,,,,
365,Marion Gardens Housing,recipient,13 Dales Avenue,Jersey City,NJ,07306, Brenda Griffin , 908-447-5748 , Blue Apron Deliveries on Saturday nights\r\nFree Market\r\nIn Community Room ,1)     ,,,,,,,,,,,,
366,Pascack Meals on Wheels,donor,100 Madison,Westwood,NJ,07675, Mandy , 201-358-0050 , Behind Trader Joe\ s Westwood\r\nsmall parking lot on left side of building ,1)     ,,,,,,,,,,,,
367,Homespun Chili,donor,80 Washington Ave,Dumont,NJ,07628, John Ferrentino , 201-982-6313 , Will need to bring boxes. ,0)     ,,,,,,,,,,,,
368,Bergen Health & Life,donor,110 Summit,Montvale,NJ,07645, Christine Hamel , 201-573-5541 , pick up at Rockleigh Country Club ,1)     ,,,,,,,,,,,,
369,B\nai Jacob,recipient,176 West Side Ave,Jersey City,NJ,07035, Andy Seigel , 201-788-6606 ,  ,0)     ,,,,,,,,,,,,
370,Booker T Housing Authority,recipient,74 Fremont Street,Jersey City,NJ,07656, Ethel , 201-443-5942 ,  ,1)     ,,,,,,,,,,,,
371,Berry Gardens Housing Authority,recipient,92 Danforth Ave,Jersey City,NJ,07305, Donna , 201-927-1631 , Another contact is Singh 551-358-4246\r\nAnother contact is Jean Killion 609-357-8105 ,1)     ,,,,,,,,,,,,
372,Whole Foods Closter,donor,33 Vervalen Street,Closter,NJ,07624, Randy Williams STL , 201-367-9099 ,  ,1)     ,,,,,,,,,,,,
373,Verisk Analytics,donor,545 Washington Blvd,Jersey City,NJ,07310, Brittany , 201-469-2943 , pb&j sandwiches in conjunction with United Way ,1)     ,,,,,,,,,,,,
374,NE FEED,donor,Meadowlands Exposition,Secaucus,NJ,07094, Deanna Collins , 201-310-5498 ,  ,1)     ,,,,,,,,,,,,
375,Curries Wood Housing Authority,recipient,3 New Heckman Drive,Jersey City,NJ,07305,, 201-539-9331 , Working with city of Jersey City and Stacey Flanagan ,1)     ,,,,,,,,,,,,
376,Hudson Gardens,recipient,27 Palisade Avenue,Jersey City,NJ,07306, Julia Royster , 201-736-7566 , working with city of Jersey City & Stacey Flanagan ,1)     ,,,,,,,,,,,,
377,Goldschneide (Private donation),donor,31 Dogwood Lane,Tenafly,NJ,07670, Jack Goldschneider , 917-584-1002 , pick up made by Julie for Rosh Hashana at Montammy Country Club ,1)     ,,,,,,,,,,,,
378,Riverside Reformed Church,recipient,527 River Street,Paterson,NJ,07524, Gabriel , 862-241-7573 , Or Fabio Sosa 201-468-2051\r\nOr Edward Flores 862-414-7297 ,0)     ,,,,,,,,,,,,
380,Duogreen,donor,5801 West Side Ave #2,North Bergen,NJ,07047, Simon Lee , 201-289-5660 , Simon Lee gets tax letter ,1),,,,,,,,,,,,
381, La Casa De Don Pedro , recipient , 23 Broadway ,Newark,NJ,07104, Stephanie Rubianes , 973-624-4222 , Still trying to get a better cell number.  This is the main number... ,1)     ,,,,,,,,,,,,
382,AeroFarms,donor,212 Rome Street,Newark,NJ,07105, Catherine Cortes Sales and Marketing MGR Coordinator , 240-460-5024 ,  ,1)     ,,,,,,,,,,,,
383,Kings Food Markets Cresskill,donor,70 Union Ave,Cresskill,NJ,07626, Gabe Corso Store Mgr , 201-541-4900 ,  ,1)     ,,,,,,,,,,,,
384,Bayonne Food Pantry,recipient,630 C Avenue,Bayonne,NJ,07002, Peter Franco ,  ,  ,0)     ,,,,,,,,,,,,
385,AeroFarms-Ferry Street,donor,400 Ferry Street,Newark,NJ,07105, Hannah Caswell- Sales and Marketing Coordinator ,  , Entrance on Oxford Street ,1)     ,,,,,,,,,,,,
386,Kings Food Markets Hillsdale,donor,381 Washington Ave,Hillsdale,NJ,07642, Anthony Sanfilippo Store Mgr , 201-722-4690 ,  ,1)     ,,,,,,,,,,,,
387,Sodexo at Teva Pharmacueticals,donor,400 Chestnut Ridge Road,Woodcliff Lake,NJ,07677, Chef Jim Hine , 201-830-3436 , closed location ,1)     ,,,,,,,,,,,,
388,Solomon Schechter Day School,donor,275 McKinley Drive,New Milford,NJ,07646, Michelle Weinraub , 201-262-9898 ,  ,1)     ,,,,,,,,,,,,
389,Destiny House Resource Center,recipient,123 Tremont Avenue,East Orange,NJ,07018, Sylvia Sexius , 973-392-0790 , 1st and 3rd Friday of the month - Mike\r\n2/2 and 2/16\r\n3/2 and 3/16 and 3/30\r\n4/6 and 4/20 ,0)     ,,,,,,,,,,,,
390,FLIK,donor,65 Challenger Road,Ridgefield Park,NJ,07660,  ,  ,  ,1)     ,,,,,,,,,,,,
391,Team Adams Foundation,donor,One Bridge Plaza,Fort Lee,NJ,07024, Shante , 609-369-6364 , Mike Adams - former Paterson resident now Indianapolis Colts player - wants to give back to Paterson for holidays ,0)     ,,,,,,,,,,,,
392,The Brick House,donor,179 Godwin Ave,Wyckoff,NJ,07481, Chef Aldo Cascio , 201-848-1211 ,  ,1)     ,,,,,,,,,,,,
393,Jersey City Health Department,recipient,199 Summit Ave,Jersey City,NJ,07304,  ,  ,  ,0)     ,,,,,,,,,,,,
394,Crunchini,donor,2023 East Street NW,Washington,DC,20036, Kerry Bedard-owner , 202-277-2115 ,  ,0)     ,,,,,,,,,,,,
395,US Gymnastics Development Ctr Parent Assoc.,donor,6 Leighton Place,Mahwah ,NJ,07430, Rebecca Rund ,  ,  ,1)     ,,,,,,,,,,,,
397,Carrington Farms,donor,7 Reuten Drive,Closter,NJ,07624, Debbie Shandel- EVP , 201-261-5517 ,  ,1)     ,,,,,,,,,,,,
398,Bayonne Economic Opportunity Foundation (HUB),recipient,7 West 9th Street,Bayonne,NJ,07002, Stephanie Celover-Wilson , 201-936-3006 ,  ,1)     ,,,,,,,,,,,,
399,Paramount Country Club,donor,60 Zukor Road,New City,NY,10956, Chef Robinson , 845-634-4626 ,  ,1)     ,,,,,,,,,,,,
400,Glen Rock Hams,donor,147 Clinton Road,West Caldwell,NJ,07006, Jennifer Oldja , 201-803-6254 ,  ,1)     ,,,,,,,,,,,,
401,Elisa Rubinson,donor,200 Old Palisade Road Apt 28A,Fort Lee,NJ,07024,  , 201-302-9781 , Chili ,1)     ,,,,,,,,,,,,
403,Bowery Farming,donor,"10 Basin Drive,  Suite 120",Kearny,NJ,07032, Tara O\ Heir- Agricultural Scientist ,  , Tara@boweryfarming.com\r\n\r\nBig Farm is located on 1 Eastern Road-Kearny\r\nContact Doug Rock-\r\ndrock@boweryfarming.com ,1)     ,,,,,,,,,,,,
404,Blue Apron Corporate,donor,5 Crosby Street,New York,NY,10013,  , 845-750-9207 , scan and email copy of 2017 letter of lbs donated to Billy Ying billy.ying @blueapron.com ,0)     ,,,,,,,,,,,,
405,Ray SF Corp. co Elmwood Park Diner,donor,375 Market Street,Elmwood Park,NJ,07407, Nick ,,"Go to rear entrance and ask for Nick\r\n\r\nMail Thank you letter to \r\n\r\nRay SF Corp.\r\nRay Saoud\r\n162 Railroad Ave\r\nPaterson, NJ 07501",1), ,,,,,,,,,,,
507,DeMedici Imports (Atalanta),donor,2 Slater Drive,Elizabeth,NJ,07206, Marie O\ Daniels , 908-393-7492 ,  ,1)     ,,,,,,,,,,,,
406,Gilmore Tabernacle Look and Live Ministry,recipient,68 Haledon Avenue,Paterson,NJ,07522, Trivia Barron-Barnes , 973-432-8342 , Valerie Veal 973-432-8342\r\nTruck can back into driveway for easier off load.\r\nVolunteers will be there!! ,1)     ,,,,,,,,,,,,
407,Whole Foods Newark,donor,633 Broad Street,Newark,NJ,07102, Joseph Torres- Store Team Leader , 973-755-5080 , John Werts-rec mgr\r\n\r\nJoseph Store leader ,1)     ,,,,,,,,,,,,
529,Atalanta,donor,1 Atalanta Plaza,Elizabeth,NJ,07206, Arceli Jacobs-Inventory Control Coordinator , 908-372-6066 ,"Shareena Roman-Guiao\r\n\r\nBusiness Analyst and Executive Assistant to Mr. Thomas S. Gellert, President\r\n\r\n908-372-6033 ",1), ,,,,,,,,,,,
408,Word of God Ministries (HUB),recipient,1123 South Orange Ave,Newark,NJ,07106, Nigel John , 973-943-7801 , Delivery to be made on street corner of Monticello and South Orange Ave.  Church is on corner.\r\n\r\nDirector is Mark Dieyi\r\nCan accept deliveries on Tuesdays and Thursdays. ,1)     ,,,,,,,,,,,,
409,Community Transformation Church,recipient,275 Sussex Avenue,Newark,NJ,07107, Jeff Carson , 201-927-3223 , Or call 973-483-3833 and ask for Jeff ,0)     ,,,,,,,,,,,,
410,Strassburger Steaks,donor,40 Broad Street,Carlstadt,NJ,07072, Suzanne Strassburger , 212-807-8878 , best pickup times between 10AM -2PM ,1)     ,,,,,,,,,,,,
411,Food Council,donor,Somerset Ballroom,Trenton,NJ,08628, Anthony ,201-681-0862, one time deal ,1)     ,,,,,,,,,,,,
412,Eons Greek,donor,501 Route 17 South,Paramus,NJ,07653, ChefGeorge Georgiades ,  ,  ,1)     ,,,,,,,,,,,,
413,Marilyn Dugan,donor,24 Palmar Place,Leonia,NJ,07605,  , 201-461-2939 , Shoprite lasagna ,1)     ,,,,,,,,,,,,
414,Patricia Jose,donor,20 Dogwood Lane,Alpine,NJ,07620, Patricia Jose , 201-446-6690 , Residence ,1)     ,,,,,,,,,,,,
415,Early Learning Center (ICC),recipient,1 New York Avenue,Newark,NJ,07105, Petra Lebron , 201-889-0329 ,"Office number 973-465-0555\r\nNo more than 3 pallets\r\n7/6, 7/13,  7/20,  7/27,  8/3 and 8/10.\r\nThen closed for rest of August.\r\nResumes deliveries 9/5. ",1), , , , ,,,,,,,,
416,The River\s Edge Church,recipient,18 Zabriskie St.,Haledon,NJ,07508, Ardie Ferrell , 973-330-7597 , Taliyah Brown\r\n973-851-5041\r\nDeliver on street to side door where office is - will block off with cones. ,0)     ,,,,,,,,,,,,
417,Cenzinos,donor,589 Ramapo Valley Road,Oakland,NJ,07436, Regina Vitti , 201-745-7518 ,  ,1)     ,,,,,,,,,,,,
418,Restaurant Associates @ Ernst and Young,donor,200 Plaza Drive,Secaucus,NJ,07094, Jessica Perez- Director of Food Services , 201-872-2219 ,  ,1)     ,,,,,,,,,,,,
419,New Vision Tabernacle (Nov 12 & 19),recipient,407 Broad Street,Newark,NJ,07452, Pastor Lewis , 862-210-4174 , twice per month.\r\n\r\nNovember deliveries are 11/13 and 11/27.\r\nDecember deliveries are 12/11 and 12/18.\r\n\r\nEntrance on 13 State Street\r\nPlease call before arrival... ,1)     ,,,,,,,,,,,,
420,John Wm. Macy\s CheeseSticks,donor,80 Kipp Ave,Elmwood Park,NJ,07407, John Macy , 201-791-8036 ,  ,1)     ,,,,,,,,,,,,
421,Fuel Meals,donor,634 Bergen Blvd,Ridgefield,NJ,07657, Chef Tom Schuckman , 973-460-6799 , Frozen meals\r\nCall Tom if any problems finding lication\r\nopen at 7am ,1)     ,,,,,,,,,,,,
422,The Terrace (Biagios),donor,293 Paramus Road,Paramus,NJ,07653, Tommy Perides , 201-652-0201 , catering@biagios.com\r\nAnother contact is Uncle Teddy. ,1)     ,,,,,,,,,,,,
423,Juliana Kellerman,donor,6 Pineview Terrace,Montvale,NJ,07645,  , 201-655-5099 , Pick up at side porch ,1)     ,,,,,,,,,,,,
424,Kellerman Residence,donor,6 Pineview Terrace,Montvale,NJ,07645, Juliana , 201-655-5099 , Residence ,1)     ,,,,,,,,,,,,
425,Luciano\s Italian Ristorante,donor,1579 Main Street,Rahway,NJ,07065, Chef  Joseph Mastrella , 201-232-0225 ,  ,0)     ,,,,,,,,,,,,
426,Kings Hoboken North,donor,1212 Shipyard Lane,Hoboken,NJ,07030, Store Mgr- Jared Labar , 201-239-4060 , Reggie-Receiving opens at 7am ,1)     ,,,,,,,,,,,,
427,CAFS Montvale,recipient,42 South Middletown Road,Montvale,NJ,07645, Valdhi Sainvilus , 201-851-8746 , Group Home\r\nRoad is hidden and house is unmarked.\r\ntake road all the way in go up hill.\r\nparking area has space to turn around.\r\nnightshift there until 9am. ,1)     ,,,,,,,,,,,,
428,Lenore Roth,donor,280 Prospect Ave #6A,Hackensack,NJ,07601, Lenore Roth , XXX , Special pick up of Meals on Wheels meals - Frozen ,1)     ,,,,,,,,,,,,
429,BTCNJ,donor,PO Box 853,Ridgewood,NJ,07450, Bill , x ,  ,1)     ,,,,,,,,,,,,
430,Masjid Al-Haqq,recipient,687 Springfield Avenue,Newark,NJ,07103, Evelyn Ayum , 973-373-0344 , No pork\r\nWould love halal or kosher\r\nAnyday but Friday.\r\n973-621-9228 or 973-454-4249 ,1)     ,,,,,,,,,,,,
431,Ponamgi Family,donor,2182 South Street,Fort Lee,NJ,07024, Leigh , 646-207-4311 ,  ,1)     ,,,,,,,,,,,,
432,Global Transport Logistics,donor,19-05 Neviins Road,Fair Lawn,NJ,07410, Frank DiPasquale , 201-251-7333 ext 38 , Ask for Mary Jorgensen when arrive. Ext 43 ,1)     ,,,,,,,,,,,,
433,Kings Hoboken South,donor,325 River Street,Hoboken,NJ,07030, Nora Gorski -Store Director , 201-386-2300 , Jay Asst Mgr\r\nLoading doc on river street ,1)     ,,,,,,,,,,,,
435,Warehouse (Pick Up),donor,260 Secaucus Road,Secaucus,NJ,07094, Jennifer Nelson , 201-449-7395 ,  ,1)     ,,,,,,,,,,,,
436,United Way (Secaucus),donor,200 Plaza Drive,Secaucus,NJ,07094, Grecia , 201-233-8027 , Ernst & Young making PB&J sandwiches ,0)     ,,,,,,,,,,,,
437,Trader Joe\s Westfield,donor,155 Elm Street,Westfield,NJ,07090, Tim Kane- Community Donations Mgr , 908-301-0910 , Casey Latsko -Captain ,1)     ,,,,,,,,,,,,
438,First Presbyterian Church Ridgewood,donor,722 East Ridgewood Ave,Ridgewood,NJ,07450, Dana Feeney- Church Administrator , 201-983-9154 ,  ,1)     ,,,,,,,,,,,,
439,Fresh Market,donor,32 Chestnut Ridge Rd,Montvale,NJ,07645, Dhalia , 201-802-9300 ,"Letter goes to Victoria Costa at Corporate\r\n\r\nVictoria Costa- Marketing Mgr\r\n628 Green Valley Road, \r\nGreensboro  NC 27408",1), , ,,,,,,,,,,
440,St. John\s Lutheran - the WE Project (HUB),recipient,155 North Street,Jersey City,NJ,07307, Dawn Carpenter , 201-456-8908 , Lead agency for HUNGER FREE JC\r\nWill take 16 pallets.  Can take more if necessary.\r\nReach out to ask. ,1)     ,,,,,,,,,,,,
441,Richard Gerstman,donor,15 Park Street,Tenafly ,NJ,07670,  , 917-860-6881 , Residence catered sandwiches ,1),,,,,,,,,,,,
442, epiCure , donor , 1 Todd Terrace , Wayne ,NJ,07470, Christina Minardi , xxx , One time pick up ,1)     ,,,,,,,,,,,,
443,Church of Mount Saint Carmel,donor,10 County Road,Tenafly,NJ,07670, Maryanne , 201-568-0545 , Frozen Food ,1)     ,,,,,,,,,,,,
444,Montclair Kimberley Academy,donor,201 Valley Road,Montclair,NJ,07042, Laura Zimmerman , 973-842-2754 , Entrance on Brunswick - drive around to back of building. When you get there call Gina \r\n347-739-9528 and she will open chain and let you in. ,1)     ,,,,,,,,,,,,
445,Computershare (Edison),donor,118 Fernwood Avenue,Edison,NJ,08837, Diane Bitterle , 732-512-3164 , Cell 908-229-2197\r\nRuns non-perishable food drive ,1)     ,,,,,,,,,,,,
446,Baking Grace,donor,718 Lafayette Avenue,Hawthorne,NJ,07506, Grace , 201-803-6297 , Bakery in Hawthorne - met through Mahwah Chamber ,1)     ,,,,,,,,,,,,
447,Cases by Source,donor,215 Island Road,Mahwah,NJ,07430, Lana Coffey , 201-252-1051 , Made pb&j ,1)     ,,,,,,,,,,,,
448,Central High School(HUB),recipient,246 18th Avenue,Newark,NJ,07108, Rev Joan-Marie Foushee , 973-624-0428 , ROTC program in high school working with Rev Joan to make bags of food for high school families in need.\r\n\r\nClosed December 21 & 28 and March 29 ,1)     ,,,,,,,,,,,,
449,Faith in Action CDC,recipient,833 Madison Avenue,Paterson,NJ,07501, Donna Farrar Warren , 973-816-7611 , Or Arlette Pope\r\n570-994-3075\r\nabout 60 families.\r\nPantry is open on Tuesdays 12-3. ,1)     ,,,,,,,,,,,,
450,Bread to Life - The Lord\s Harvest,recipient,100 East 22nd Street,Bayonne,NJ,07002, Norma Rosario or Divina Reyes , 201-858-3825 ,  ,0)     ,,,,,,,,,,,,
452,Park Chateau Estate & Gardens,donor,678 Cranbury Rd.,East Brunswick,NJ,08816, Tom Casella  General Manager , 732-238-4200 ,,1), ,,,,,,,,,,,
453,Jersey Italian Gravy,donor,16 Thorton Rd.,Oakland,NJ,07436, Carlos Vega , 201-566-8003 ,  ,1)     ,,,,,,,,,,,,
517,Nuvolo,donor,"115 West Century Rd,  3rd floor West Wing",Paramus,NJ,07652, Noha Hamza ,718-864-3968  , Corporate location,1)     , ,,,,,,,,,,,
454,Bessie Green Community,recipient,510 Broad Street,Newark,NJ,07102, Barbara Van Hassel , 201-417-4751 ,"Deliver to 42 Atlantic Street (back of church)\r\noffice 973-648-6800\r\nMonique - kitchen manager\r\nPedro - church caretaker\r\nIn kitchen - Zak,  Richard  Arnold and Fatima ",1), , ,,,,,,,,,,
455,Humanity Baptist Church (Nov 8th & 22nd),recipient,235 Bergen Street,Newark,NJ,07103, Kelly Williams , 973-964-5535 ,Call Elder Williams to give time  if you can.\r\n\r\n2nd and 4th Friday of each month.\r\nJuly 12 and 26\r\nAugust 23\r\nSeptember 13 and 27\r\nOctober 12 and 26\r\nNovember 9 and 23\r\nDecember 7 and 21 ,1), ,,,,,,,,,,,
456,Rema Foods Inc,donor,140 Sylvan Ave 2nd Floor,Englewood Cliffs,NJ,07632, Steven Winograd-Operations , 201-388-2719 ,  ,1)     ,,,,,,,,,,,,
457,Principe North AmericaAmerica LLC co Superior Cold Storage,donor,1161 East Broad Street,Elizabeth,NJ,07201, Ilaria Bellanca- Controller , 845-672-5736 ,"Corp Address: 240 Kent Ave Brooklyn,  NY 11249 ",1), ,,,,,,,,,,,
458,Sharon Hodges - private home,donor,181 Kemah Road,Ridgewood,NJ,07450, Sharon Hodges , 201-444-2685 ,  ,1)     ,,,,,,,,,,,,
459,Ciba Vita Warehouse,donor,15-01 Pollitt Drive,Fair Lawn,NJ,07410, Sibel , 862-225-3803 ,"Water donation\r\nReceipt sent to:\r\nCiba Vita\r\n407 Green Mt. Rd.\r\nMahwah, NJ  07430\r\nRobin Caprio (551)427-7958 ",1), , ,,,,,,,,,,
460,Wegmans,donor,100 Farm View,Montvale,NJ,07645, Jeremiah-Rec , 551-249-2200 , Pick ups Mon-Wed-Fri 8am\r\nCorporate contact\r\nKenny Sherr Service manager \r\n551-249-2200 ext 207\r\nStarts 3/26 ,1)     ,,,,,,,,,,,,
461,Congregational Baptist Church (Nov 12 & 19),recipient,399 Bergen Street,Newark,NJ,07103, Ginny , 973-449-9819 , 2nd and 3rd Tuesday of each month. ,1)     ,,,,,,,,,,,,
462,"Lorenzo Food Group, Inc",donor,196 Coolidge Ave,Englewood,NJ,07631, Brian Baldwin-Purchaser-Rec ,201-868-9088 ,Ask for Lydia!!!\r\nPresident : John Lorenzo\r\n201-868-9088  cell 201-233-0751\r\n\r\nopen Mon-Sat 7am- 5pm ,1), , ,,,,,,,,,,
463,Bayer Flik-Compass,donor,100 Bayer Boulevard,Whippany,NJ,07981, Anthony Palomba  Executive Chef , 609-254-9622 ,,1), ,,,,,,,,,,,
464,Far Hills Country Day School,donor,697 US Highway 202,Far Hills,NJ,07931, Ellen , x , One day deal ,1)     ,,,,,,,,,,,,
465,Community Soup Kitchen,recipient,36 South Street,Morristown,NJ,07960, Lois , 973-267-0709 x204 , They pick up from Bayer/Flick Whippany and report pounds back. ,0)     ,,,,,,,,,,,,
466,Flik at Konica Minolta,donor,100 Williams Drive,Ramsey,NJ,07446, Kristen Schwartz , 201-934-4693 ,  ,1)     ,,,,,,,,,,,,
467,Debragga & Spitler,donor,65-77 Amity Street,Jersey City,NJ,07304, Lydia Liebchen-Corp Chef , 212-924-1311 ext 228 ,Marc Sarrazin--President\r\n\r\nWarehouse is around the corner on Bright Street ,1)     ,,,,,,,,,,,,
468,Peterson Cheese,donor,14 Empire Blvd,Moonachie,NJ,07074, Felix Rodriguez , 253-249-2455 , Tom Wardlaw Director of Operations\r\n973-296-5045 ,1)     ,,,,,,,,,,,,
475,Cardinal Foods,donor,505 Jefferson Ave,Secaucus,NJ,07094, Eric Smith-Owner , 201-330-0800 ,Cathy-office Mgr  see cathy in office when arrive , 1), ,,,,,,,,,,,
469,Fresko,donor,20 Railroad Avenue,Hackensack,NJ,07601, Erik Gross , 917-841-6859 , Go to the back of the building and pull into loading dock.\r\n\r\nPick up every Friday. ,1)     ,,,,,,,,,,,,
470,CAFS Mahwah,recipient,94 Ramapo Valley Road,Mahwah,NJ,07430, Valdhi Sainvilus , 201-851-8746 , Group home\r\nAcross the street from Mahwah Bar & Grill ,0)     ,,,,,,,,,,,,
471,Fresh Mozzarella Company,donor,314 Colfax Road,Clifton,NJ,07013, Pat Edmonds - Owner , 201-738-5082 , Loading dock at far back right building. ,1)     ,,,,,,,,,,,,
472,Perfect Bite,donor,747 Wilson Avenue,Glendale,CA,91203, Todd Hauerland - VP of Logistics and Supply Chain , 818-507-1527 , Pick up at Freezepac ,1)     ,,,,,,,,,,,,
473,Esti Foods LLC,donor,275 Veterans Blvd,Rutherford,NJ,07070, Chris-Rec , 201-460-2333 ,"Pull into left entrance loading area next to construction...ask for Chris\r\n\r\nCorporate office:\r\n\r\nAnne Marie Hessinger\r\n150 S Van Brunt Street\r\nEnglewood, NJ  07631\r\n201-567-5156 ",1), , ,,,,,,,,,,
474,Alpine Boy Scout Camp,donor,441 Route 9W,Alpine ,NJ,07620,  ,  , Call Scott Park Ranger when on way\r\n201-310-3675 ,1)     ,,,,,,,,,,,,
476,Conca D\Oro,donor,100 Bomont Place,Totowa,NJ,07512, Paolo Salvia , 718-446-0800 ,  ,1)     ,,,,,,,,,,,,
477,Golden Platter,donor,37 Tompkins Point Road,Newark,NJ,07114, Monica Quinonez-QC Mgr , 973-242-0290 ,  ,1)     ,,,,,,,,,,,,
478,Performance Food Group,donor,1 IKEA Drive,Elizabeth,NJ,07201, Louis Gonzalez , 908-436-4989 ,  ,1)     ,,,,,,,,,,,,
479,Jersey Famous Foods,donor,93 Albert Ave,Newark,NJ,07105, Chasity Napoleon , 973-900-6153 x 307 , Jose Carron-Shipping 973-900-6153 x305\r\nDiego Guaylaceln-ops mgr 973-900-6153 x300 ,1)     ,,,,,,,,,,,,
480,Mr Good Luck Warehouse,donor,455 Alfred Ave Unit B,Teaneck,NJ,07666, Jake Cho , 917-943-0572 ,Corp Office:1315 15th Street  Fort Lee NJ  07024\r\n\r\n917-943-0572,1), , , ,,,,,,,,,
481,George Washington Carver Bruce Street Elementary School (HUB),recipient,333 Clinton Place,Newark,NJ,07112, Dwayne , 973-868-1059 , Newark School HUB\r\nDeliver onto playground off of Aldine Street ,1)     ,,,,,,,,,,,,
482,Cargill Salt -Hall\s Warehouse,donor,330 Oak Tree Ave,South Plainfield,NJ,07080,, 908-756-6242 x250 ,corp:\r\n\r\nCargill Salt\r\nBob Jordan\r\nNational Account Mgr\r\nNE Retail & Commercial Salt\r\n1103 Deerfield Road Monroe  NY 10950\r\n845-238-2113 ,1), ,,,,,,,,,,,
483,Gargiulo Produce,donor,535 Sweetland Ave,Hillside,NJ,07205, Rich Gargiulo Owner , 908-233-8222 , Chris Ducey Ops Mgr 908-233-8222 ,1)     ,,,,,,,,,,,,
484,GFG Bakery,donor,275 Veterans Blvd,Rutherford,NJ,07070, Ms. Chin Ugouzi , 201-917-2425 , Shipping Contact: Socrates ,1)     ,,,,,,,,,,,,
485,Haitian Baptist Church Crossroads,recipient,202 South 12t Street,Newark,NJ,07107, Mrs. Limene Nicolas , 908-265-3603 ,908-553-6031\r\n\r\nBegins thursday June 14th.\r\nIf you are going to be there after 1:30pm  just call her and let her know.  Thank you!! ,1), ,,,,,,,,,,,
486,Dr. Produce,donor,262 Buffalo Ave,Paterson,NJ,07503, Leslie Rodriguez , 973-396-8080 ,  ,1)     ,,,,,,,,,,,,
487,Dr Produce,donor,262 Buffalo Ave,Paterson,NJ,07503, Leslie Rodriguez , 973-396-8080 ,  ,1)     ,,,,,,,,,,,,
488,The Venetian,donor,546 River Drive,Garfield,NJ,07026, Mike , 973-546-2250 ,  ,1)     ,,,,,,,,,,,,
489,A Zerega\s Sons Inc,donor,20-01 Broadway,Fair Lawn,NJ,07410, Rob Vermylen , 201-614-8414 , Ask for Victor when you arrive ,1)     ,,,,,,,,,,,,
490,Calvary Cares CDC Inc (ON HOLD),recipient,90 West Demarest Avenue,Englewood,NJ,07631, Dionisio Cucuta Jr. , 201-315-5618 , ON HOLD - WAITING TO FIND ANOTHER LOCATION.\r\n\r\nCall when you know you will be there.\r\nVery close to St. Cecelia\ s. ,1)     ,,,,,,,,,,,,
491,Flying Food Group,donor,640 Frelinghuysen Ave,Newark,NJ,07144, Carlos Pinto , 973-623--3395 ext 26 , cell: 291-852-4150 ,1)     ,,,,,,,,,,,,
492,Farm Boy Superfresh,donor,465 Getty Ave,Paterson,NJ,07503, Mr. Joon Lee , 201-742-3955 ,  ,1)     ,,,,,,,,,,,,
493,White Toque LLC,donor,11 Enterprise Ave North,Secaucus,NJ,07094, Exciel Renvill-Ops Mgr , 201-863-2885 x223 ,  ,1)     ,,,,,,,,,,,,
494,Goya Foods,donor,350 County Road,Jersey City,NJ,07097, Andrew , 201-640-5545 , Go to door 68 ask for Ms Albis Gonzalez in Receiving ,1)     ,,,,,,,,,,,,
495,Tropicana,donor,9 Linden Ave East,Jersey City,NJ,07305, Eric Karafiol , 516-941-8974 , Sumita Rai Corp 215-519-5006\r\n\r\nLet gate know there to pickup Chilled DSD and to Contact Eric at 516-941-8974 ,1)     ,,,,,,,,,,,,
496,St. Anne\s Soup Kitchen (ON HOLD) (Franciscan Charities),recipient,103 16th Avenue,Newark,NJ,07103, Michelle Middleton , 201-955-8206 , Soup Kitchen\r\nPull into parking lot/courtyard between iron gates\r\n\r\nMary Lee Trousdale\r\n908-403-4222 ,1)     ,,,,,,,,,,,,
497,New Vision Foods,donor,634 Bergen Blvd,Ridgefield,NJ,07657, Joe Acosta-Executive Chef , 551-319-0555 , pickup mon and wed ,1)     ,,,,,,,,,,,,
498,Loc Maria Bisquits Inc co Seafrigo,donor,735 Dowd Ave,Newark,NJ,07201, Veronica Subers , 610-273-8569 ,Veronica Subers(Corp) Customer Relations  Product Development and Logistics\r\n1010 North Hancock Street  Philadelphia  PA 19123 ,1),  , , ,,,,,,,,,
499,Wotiz Meat Company,donor,68 First Street,Passaic,NJ,07055, Nick Gatti or Scott , 973-773-7556 , Pick up anytime between 7:30-2pm \r\nMonday through Thursday ,1)     ,,,,,,,,,,,,
500,Salvation Army Boys and Girls Club Ironbound,recipient,11 Providence Street,Newark,NJ,07105, Zelia Oliveira , 973-344-2698 , Double door on Providence Street for delivery.\r\nCall Zelia when you arrive.\r\nMarket St. to Ironbound\r\nTurn left on Fleming Ave (right after Police station)\r\nTurn left on Providence.  Big corner brick building ,1)     ,,,,,,,,,,,,
501,Boys and Girls Club Newark (Nov 7 & 21),recipient,1 Avon Avenue,Newark,NJ,07108, Gardan Speights , 646-236-5695 , NO PORK\r\n\r\nNovember 7 & 21\r\nDecember 5 & 19 ,1)     ,,,,,,,,,,,,
561,Kings Garwood,donor,300 South Ave,Garwood,NJ,07027, Lakashi Branch ,  ,  ,1)     ,,,,,,,,,,,,
502,CAFS Haskell,recipient,4 Park Avenue,Haskell,NJ,07420, Tanya Gray , 201-851-8758 , Fridays ,1)     ,,,,,,,,,,,,
503,Food Depot Supermarket,donor,75 1st Street,Newark,NJ,07107, Hoover Gonzalez-Mgr , 973-350-0202 ,  ,1)     ,,,,,,,,,,,,
504,Mama Mia Produce,donor,50 Morton Street,East Rutherford,NJ,07073, Dvir Efergan Shimon Efergan , 973-773-9494 , Warehouse contact is Pedro - ask for Pedro when you arrive. ,1)     ,,,,,,,,,,,,
505,St. Catherine of Siena,donor,39 E. Bradford Avenue,Cedar Grove,NJ,07009, Ms. Kerwin , 973-239-6968 ,  ,1)     ,,,,,,,,,,,,
506,The Original Soup Man,donor,745 Hope Road,Eatontown,NJ,07724, Nicole Hagan ,  , Mike: 973-900-3269 ,1)     ,,,,,,,,,,,,
508,Helene Nafbali (private home),donor,489 Carlton Rd,Wyckoff,NJ,07481, Helene , 201-694-5656 , Ring the doorbell and ask for Helene. ,0)     ,,,,,,,,,,,,
509,Our Lady of Mount Carmel,donor,10 County Rd,Tenafly,NJ,07670, Mary Ann Nelson , 201-568-0545 ,  ,1)     ,,,,,,,,,,,,
510,The Barn,donor,570 Piermont Rd,Closter,NJ,07624," Ted Solid, Owner",917-518-1988   ,Go around back\r\nRestaurant closing and packing up food for us.\r\nCall about 30 minutes before going,0), ,,,,,,,,,,,
511,Source Communications,donor,433 Hackensack Ave Suite 1,Hackensack,NJ,07601, Craig Franklin , 201-988-0044 , Juice ,1)     ,,,,,,,,,,,,
512,Malcolm X Shabazz High School (HUB),recipient,80 Johnson Avenue,Newark,NJ,07108, Ms. Ellison , 973-202-7561 ,Call when on your way there.\r\nDrop off in back of school\r\nGPS 95 Milford Avenue  Newark\r\nParking lot right after on corner of Alpine and Milford. ,1), ,,,,,,,,,,,
513,John Pilioris (private residence),donor,59 houston Place,Haworth,NJ,07641, angela , 201-906-4727 ,pick up ham - one time deal  JULY 10  AUGUST 28\r\n\r\nRev Earlin Thomas (another contact)\r\n201-428-8650\r\n\r\nDeliver to community room located behind main office.  Corner of Duncan Ave and Marcy Pl. ,1)     ,,,,,,,,,,,,
514,Mount Vernon Elementary (HUB),recipient,142 Mount Vernon Place,Newark,NJ,07103, Victoria Carlisle , 973-380-4236 ,Or Jae Zimmermann 973-349-0940\r\nor Dave Price  Principal 973-985-7088\r\nor Mike Dixson 973-296-0048\r\nParking lot is around side / back.\r\nput into GPS 167 Tuxedo Parkway  Newark ,1), , ,,,,,,,,,,
515,Purple Carrot,donor,81B Walsh Drive,Parsippany,NJ,07054, April Cook , 201-6942725 , (not correct phone number) ,1)     ,,,,,,,,,,,,
516,Bartlett Dairy,donor,802-814 Bergen Street,Newark,NJ,07108, Samantha Keane , 718-658-2299 ,x265 for Samantha\r\nWhen you get to guard house  ask for Paul ,1), ,,,,,,,,,,,
518,ShopRite Wyckoff,donor,430 Greenwood AVenue,Wyckoff,NJ,07481, John Kopf  Store Manager , 201-529-8131 ,,1), ,,,,,,,,,,,
519,Abundant Grace & Truth Ministries (Dec 13),recipient,100 Palisade Avenue,Westwood,NJ,07675, Angela Dixon , 201-456-3182 ,"This is in the New St Mark Church.\r\nPull in driveway to the left of the church.\r\nVolunteers will bring food in through side door\r\nOct 11 Nov 8,  Dec 13 ",1), ,,,,,,,,,,,
520,West Side High School (Mobile Market),recipient,403 South Orange Avenue,Newark,NJ,07103, Ana DosSantos , 973-342-2512 , Mobile Market Fridays ,0)     ,,,,,,,,,,,,
521,PARKING LOT (OUT),donor,Shoprite,Lodi,NJ,07644, Anthony Math ,201-887-7839,  ,1)     ,,,,,,,,,,,,
522,PARKING LOT (IN),donor,Shoprite,Lodi,NJ,07644, Anthony Math ,201-887-7839, Please use this as your last stop when you pull into the parking lot.  Make sure to enter zero pounds so it registers your time. ,1)     ,,,,,,,,,,,,
523,Beyond Meat (Preferred Freezer Services of Jersey City),donor,100 Polar Way,Jersey City,NJ,07305, Taryn Larino CSR , 201-915-3800 x3906 ,Beyond Meat Corporate information:\r\nKristi Donadio - Beyond Meat\r\nRegional Field Marketing Manager - Northeast\r\n1325 El Segundo Blvd.\r\nEl Segundo  CA 90245\r\n973-634-6905 ,1), ,,,,,,,,,,,
524,The Hill,donor,252 Schraalenburgh Road,Closter,NJ,07624, Chef Ben Pollinger , 201-220-3780 , Go to back of building on right side down stairs ,1)     ,,,,,,,,,,,,
525,Christ Church of Ramapo,recipient,65 Washington Avenue,Suffern, NY,10901, Kitty Nash , 845-357-1615 x13 , Darlene James x16\r\n\r\nOccasional drop of meat.\r\nPull into back parking lot (behind church) \r\nCenter door - at ramp ,0)     ,,,,,,,,,,,,
526,Bylada Foods LLC,donor,140 West Commercial Ave,Moonachie,NJ,07074, Melinda Orellano , 201-895-7182 direct , 201-933-7474 ext 235 ,1)     ,,,,,,,,,,,,
527,Fossil Farms,donor,81 Fulton Street,Boonton ,NJ,07005, Lance Applebaum-owner , 973-917-3155 ,  ,1)     ,,,,,,,,,,,,
528,Isaiah House,recipient,238 North Munn Avenue,East Orange,NJ,07017, Angela Phelan , 201-306-8613 , Nancy Hicks 973-678-5882\r\n\r\nOpen Monday thru Friday 24 hours. ,1)     ,,,,,,,,,,,,
530,Paterson Task Force (Mobile Market),recipient,36 Circle Avenue (Hilltop Haven),Paterson,NJ,07522, Roberta Farber , 201-306-6328 ,  ,1)     ,,,,,,,,,,,,
531,Stop & Shop Haskell,donor,4 Union Ave,Haskell,NJ,07420, Dave Kuiphoff Store Mgr , 973-616-1181 , m-w-fri ,1)     ,,,,,,,,,,,,
532,Stop & Shop Hackensack,donor,380 W Pleasantview Ave,Hackensack,NJ,07601, Mike Dixon -Store Mgr , 201-342-6030 , Mon-Wed-Fri\r\nJose Angeles Asst Mgr ,1)     ,,,,,,,,,,,,
533,Henry Lambertz Inc co Seafrigo,donor,158 Mt. Olivet Ave,Newark,NJ,07114,  ,  ,Corp office:\r\n\r\nHenry Lambertz  Inc\r\n3730 US Highway 46 W\r\nUnit 210\r\nFairfield NJ  07004\r\n862-210-8916\r\nHelen Mackanin-Office Mgr ,1), , , ,,,,,,,,,
534,Super Foodtown Nicholas markets Cedar grove,donor,597 Pompton Ave,Cedar Grove,NJ,07009, Dave Mesa-Store Mgr , 973-595-0655 , m-w-fri ,1)     ,,,,,,,,,,,,
536,Elizabeth Warehouse (per Dawn),donor,xxx,Elizabeth,NJ,07201, Dawn , xxxx , No thank you note necessary ,1)     ,,,,,,,,,,,,
537,Stop and Shop Union,donor,1201 Stuyvesant Ave,Union,NJ,07083, Kathy Stein  rcv mgr ,908-729-9030   ,Receiving dock are in underground garage to the right. - Don\ t use loading dock on Monday and Friday.  Ok on Wednesday if there is a spot.,1), ,,,,,,,,,,,
538,At the Feet of Jesus,recipient,273 Ocean Avenue,Jersey City,NJ,07305, Onekia Smith , 732-912-4215 , Saturday deliveries.\r\nCan take up to 11 pallets.\r\nCan be called for random deliveries. ,1)     ,,,,,,,,,,,,
539,Vine Development - Shield of Faith Ministries (Nov 13),recipient,348 Duncan Avenue,Jersey City,NJ,07306, Olivia Jacobs , 908-425-1232 , ONCE A MONTH - JUNE 12,1), , ,,,,,,,,,,
540,Star of Hope (Grace Redeemer Church) (HUB),recipient,21 Harristown Rd,Glen Rock,NJ,07452, Pastor Matt Andersen , 201-538-1298 , Pull around the right side of building\r\ndrop off at first loading dock on the left.\r\n4 pallets mixed - 4 to 5 different items. ,1)     ,,,,,,,,,,,,
541,Chabad of Hackensack (Kindness Project),donor,280 Summit Avenue,Hackensack,NJ,07601, Rabbi Mindy Kaminker ,  , Julie picked up bagged lunches from them...delivered to Bessie Green ,1)     ,,,,,,,,,,,,
542,New Vision Christian Assembly,recipient,773-777 South 20th Street,Newark,NJ,07103, Makensy Similhomme , 908-868-7347 , Springfield & 20th\r\nPINK CHURCH\r\nparking lot on left side of church behind gate and metal garage door. ,1)     ,,,,,,,,,,,,
543,Paterson School #2,recipient,22 Passaic Street,Paterson,NJ,07501, Jessica , 973-851-1519 , July 3rd and July 17th\r\n50 children in summer program. ,1)     ,,,,,,,,,,,,
544,Whole Foods Weehawken,donor,1400 Waterfront Terrace,Weehawken ,NJ,07086, Allan Alvarez-Director of Receiving ,  , Turn into riverside terrace for receiving ententrance ,1)     ,,,,,,,,,,,,
545,Trader Joe\s Hoboken,donor,1350 Willow Ave,Hoboken,NJ,07030, L\ yvon  David Bunker ,201-714-4790 , M-W-Friday after 10:15 AM\r\n\r\nMake right at Walgreens  then make right to loading dock. Must use right loading dock. If loading dock door closed call store and they will open. Staff will bring donations out. ,1), , ,,,,,,,,,,
546,Essex Plaza (Mobile Market) (Nov 19th & 25th),recipient,1060 Broad Street,Newark,NJ,07102, Yamiday (Rose) Dalliah , 973-968-7505 , Once a month Mobile Market\r\nOct 1 & 22\r\nNov 5 & 19 & 25\r\nDec 17\r\nJan 21 & 28\r\nFeb 18 & 25 ,1)     ,,,,,,,,,,,,
547,River Vale Township Food Pantry,recipient,334 Rivervale Rd,River Vale,NJ,07675, Katherine Villone , 201-310-6901 , Located in small building behind the police department. ,1)     ,,,,,,,,,,,,
548,Garden State Cold Storage,donor,580 Port Carteret Drive,Carteret,NJ,07008, Kevin , 201-616-1140 ,  ,1)     ,,,,,,,,,,,,
549,Dr. Fried (personal home),donor,21 Irene Court,Demarest,NJ,07627, Dr. Fried , 201-923-4180 , leftovers from Sunday party ,1)     ,,,,,,,,,,,,
550,Lincoln Park Towers (Mobile Market) (Dec 3rd),recipient,33 Lincoln Park,Newark,NJ,07102, Kevin ,  , Oct 8\r\nNov 12\r\nDec 3\r\nJan 14\r\nFeb 11 ,1)     ,,,,,,,,,,,,
551,Wild For co.,donor,133 Kossuth St,Newark,NJ,07105, Aleem Ahmed , 703-965-6184 , Spoiler Alert ,1)     ,,,,,,,,,,,,
552,Church of the Presentation,donor,271 W Saddle River Rd,Upper Saddle River,NJ,07458, Melanie Cheplic , 201-264-0902 ,  ,1)     ,,,,,,,,,,,,
553,Radha Reddy,donor,42 pleasant ave,Haworth  NJ,NJ,07641,  ,  ,  ,1)     ,,,,,,,,,,,,
554,The Great Commission Church,recipient,53-57 Marshall Street,Paterson,NJ,07501, Alvaro Hones , 973-330-6201 , Delivery drop off spot in gated parking lot on Grand Street side. ,1)     ,,,,,,,,,,,,
555,Glaze Donuts,donor,141 English Street,Hackensack,NJ,07601, Mary LoPonte , 201-488-1070 ,  ,1)     ,,,,,,,,,,,,
556,Quitman Street School (HUB),recipient,21 Quitman Street,Newark,NJ,07103, Damon Harrison , 973-876-3289 ,  ,1)     ,,,,,,,,,,,,
557,Lakeside Produce,donor,132 Elliot Street,Leamington,Nj,Canada,  , 519-322-1959 ,  ,1)     ,,,,,,,,,,,,
558,Simply Trudy,donor,55 Walnut Street,Norwood,NJ,07648, Marie Roth , 201-994-6889 ,  ,1)     ,,,,,,,,,,,,
559,Roberto Clemente Shalom Towers (Mobile Market) (Dec 10th),recipient,75 - 95 Clinton Avenue,Newark,NJ,07114, Anthony , x , this is a Lincoln Park market.\r\nWill happen once a month.  :) ,1)     ,,,,,,,,,,,,
560,Hoboken Farms,donor,PO Box 483,Hoboken,NJ,07030, Brad Finkel  President ,201-681-5709  , Warehouse\r\n314 Colfax Ave\r\nClifton NJ   07013,1), , , ,,,,,,,,,
562,Dreyer Farms,donor,831 Springfield Ave,Cranford,NJ,07016, Dawn , 908-276-1290 ,  ,1)     ,,,,,,,,,,,,
563,Truck (Food left on),recipient,"611 US HIGHWAY 46 W,  STE 240", HASBROUCK HEIGHTS ,NJ,07604, Jennifer Nelson , 201-449-7395 ,  ,1)     ,,,,,,,,,,,,
564,Truck (Pick up),donor,Parking Lot,Lodi,NJ,07644, Jennifer Nelson , 201-449-7395 ,  ,1)     ,,,,,,,,,,,,
565,Stew Leonards,donor,700 Paramus Park,Paramus,NJ,07652, Nevin or Steve , 201-649-0888 ,  ,1)     ,,,,,,,,,,,,
566,Brooklyn Brands @ Garden State Cold Storage,donor,580 Port Carteret Dr,Carteret,NJ,07008, Nichole Rivera ,  ,  ,1),,,,,,,,,,,,
,,,,,,,,,,,,,,,,,,,,,,
,,,,,,,,,,,,,,,,,,,,,,
,,,,,,,,,,,,,,,,,,,,,,
,,,,,,,,,,,,,,,,,,,,,,
,,,,,,,,,,,,,,,,,,,,,,
,,,,,,,,,,,,,,,,,,,,,,
,,,,,,,,,,,,,,,,,,,,,,
,,,,,,,,,,,,,,,,,,,,,,
,,,,,,,,,,,,,,,,,,,,,,
,,,,,,,,,,,,,,,,,,,,,,
,,,,,,,,,,,,,,,,,,,,,,
,,,,,,,,,,,,,,,,,,,,,,
,,,,,,,,,,,,,,,,,,,,,,
,,,,,,,,,,,,,,,,,,,,,,
,,,,,,,,,,,,,,,,,,,,,,
,,,,,,,,,,,,,,,,,,,,,,
,,,,,,,,,,,,,,,,,,,,,,
,,,,,,,,,,,,,,,,,,,,,,
,,,,,,,,,,,,,,,,,,,,,,
,,,,,,,,,,,,,,,,,,,,,,
,,,,,,,,,,,,,,,,,,,,,,
,,,,,,,,,,,,,,,,,,,,,,
,,,,,,,,,,,,,,,,,,,,,,
,,,,,,,,,,,,,,,,,,,,,,
,,,,,,,,,,,,,,,,,,,,,,
,,,,,,,,,,,,,,,,,,,,,,
,,,,,,,,,,,,,,,,,,,,,,
,,,,,,,,,,,,,,,,,,,,,,
,,,,,,,,,,,,,,,,,,,,,,
,,,,,,,,,,,,,,,,,,,,,,
,,,,,,,,,,,,,,,,,,,,,,
,,,,,,,,,,,,,,,,,,,,,,
,,,,,,,,,,,,,,,,,,,,,,
,,,,,,,,,,,,,,,,,,,,,,
,,,,,,,,,,,,,,,,,,,,,,
,,,,,,,,,,,,,,,,,,,,,,
,,,,,,,,,,,,,,,,,,,,,,
,,,,,,,,,,,,,,,,,,,,,,
,,,,,,,,,,,,,,,,,,,,,,
,,,,,,,,,,,,,,,,,,,,,,
,,,,,,,,,,,,,,,,,,,,,,
,,,,,,,,,,,,,,,,,,,,,,
,,,,,,,,,,,,,,,,,,,,,,
,,,,,,,,,,,,,,,,,,,,,,
,,,,,,,,,,,,,,,,,,,,,,
,,,,,,,,,,,,,,,,,,,,,,
,,,,,,,,,,,,,,,,,,,,,,
,,,,,,,,,,,,,,,,,,,,,,
,,,,,,,,,,,,,,,,,,,,,,
,,,,,,,,,,,,,,,,,,,,,,
,,,,,,,,,,,,,,,,,,,,,,
,,,,,,,,,,,,,,,,,,,,,,
,,,,,,,,,,,,,,,,,,,,,,
,,,,,,,,,,,,,,,,,,,,,,
,,,,,,,,,,,,,,,,,,,,,,
,,,,,,,,,,,,,,,,,,,,,,
,,,,,,,,,,,,,,,,,,,,,,
,,,,,,,,,,,,,,,,,,,,,,
,,,,,,,,,,,,,,,,,,,,,,
,,,,,,,,,,,,,,,,,,,,,,
,,,,,,,,,,,,,,,,,,,,,,
,,,,,,,,,,,,,,,,,,,,,,
,,,,,,,,,,,,,,,,,,,,,,
,,,,,,,,,,,,,,,,,,,,,,
,,,,,,,,,,,,,,,,,,,,,,
,,,,,,,,,,,,,,,,,,,,,,
,,,,,,,,,,,,,,,,,,,,,,
,,,,,,,,,,,,,,,,,,,,,,
,,,,,,,,,,,,,,,,,,,,,,
,,,,,,,,,,,,,,,,,,,,,,
,,,,,,,,,,,,,,,,,,,,,,
,,,,,,,,,,,,,,,,,,,,,,
,,,,,,,,,,,,,,,,,,,,,,
,,,,,,,,,,,,,,,,,,,,,,
,,,,,,,,,,,,,,,,,,,,,,
,,,,,,,,,,,,,,,,,,,,,,
,,,,,,,,,,,,,,,,,,,,,,
,,,,,,,,,,,,,,,,,,,,,,
,,,,,,,,,,,,,,,,,,,,,,
,,,,,,,,,,,,,,,,,,,,,,
,,,,,,,,,,,,,,,,,,,,,,
,,,,,,,,,,,,,,,,,,,,,,
,,,,,,,,,,,,,,,,,,,,,,
,,,,,,,,,,,,,,,,,,,,,,
,,,,,,,,,,,,,,,,,,,,,,
,,,,,,,,,,,,,,,,,,,,,,
,,,,,,,,,,,,,,,,,,,,,,
,,,,,,,,,,,,,,,,,,,,,,
,,,,,,,,,,,,,,,,,,,,,,
,,,,,,,,,,,,,,,,,,,,,,
,,,,,,,,,,,,,,,,,,,,,,
,,,,,,,,,,,,,,,,,,,,,,
,,,,,,,,,,,,,,,,,,,,,,
,,,,,,,,,,,,,,,,,,,,,,
,,,,,,,,,,,,,,,,,,,,,,
,,,,,,,,,,,,,,,,,,,,,,
,,,,,,,,,,,,,,,,,,,,,,
,,,,,,,,,,,,,,,,,,,,,,
,,,,,,,,,,,,,,,,,,,,,,
,,,,,,,,,,,,,,,,,,,,,,
,,,,,,,,,,,,,,,,,,,,,,
,,,,,,,,,,,,,,,,,,,,,,
,,,,,,,,,,,,,,,,,,,,,,
,,,,,,,,,,,,,,,,,,,,,,
,,,,,,,,,,,,,,,,,,,,,,
,,,,,,,,,,,,,,,,,,,,,,
,,,,,,,,,,,,,,,,,,,,,,
,,,,,,,,,,,,,,,,,,,,,,
,,,,,,,,,,,,,,,,,,,,,,
,,,,,,,,,,,,,,,,,,,,,,
,,,,,,,,,,,,,,,,,,,,,,
,,,,,,,,,,,,,,,,,,,,,,
,,,,,,,,,,,,,,,,,,,,,,
,,,,,,,,,,,,,,,,,,,,,,
,,,,,,,,,,,,,,,,,,,,,,
,,,,,,,,,,,,,,,,,,,,,,
,,,,,,,,,,,,,,,,,,,,,,
,,,,,,,,,,,,,,,,,,,,,,
,,,,,,,,,,,,,,,,,,,,,,
,,,,,,,,,,,,,,,,,,,,,,
,,,,,,,,,,,,,,,,,,,,,,
,,,,,,,,,,,,,,,,,,,,,,
,,,,,,,,,,,,,,,,,,,,,,
,,,,,,,,,,,,,,,,,,,,,,
,,,,,,,,,,,,,,,,,,,,,,
,,,,,,,,,,,,,,,,,,,,,,
,,,,,,,,,,,,,,,,,,,,,,
,,,,,,,,,,,,,,,,,,,,,,
,,,,,,,,,,,,,,,,,,,,,,
,,,,,,,,,,,,,,,,,,,,,,
,,,,,,,,,,,,,,,,,,,,,,
,,,,,,,,,,,,,,,,,,,,,,
,,,,,,,,,,,,,,,,,,,,,,
,,,,,,,,,,,,,,,,,,,,,,
,,,,,,,,,,,,,,,,,,,,,,
,,,,,,,,,,,,,,,,,,,,,,
,,,,,,,,,,,,,,,,,,,,,,
,,,,,,,,,,,,,,,,,,,,,,
,,,,,,,,,,,,,,,,,,,,,,
,,,,,,,,,,,,,,,,,,,,,,
,,,,,,,,,,,,,,,,,,,,,,
,,,,,,,,,,,,,,,,,,,,,,
,,,,,,,,,,,,,,,,,,,,,,
,,,,,,,,,,,,,,,,,,,,,,
,,,,,,,,,,,,,,,,,,,,,,
,,,,,,,,,,,,,,,,,,,,,,
,,,,,,,,,,,,,,,,,,,,,,
,,,,,,,,,,,,,,,,,,,,,,
,,,,,,,,,,,,,,,,,,,,,,
,,,,,,,,,,,,,,,,,,,,,,
,,,,,,,,,,,,,,,,,,,,,,
,,,,,,,,,,,,,,,,,,,,,,
,,,,,,,,,,,,,,,,,,,,,,
,,,,,,,,,,,,,,,,,,,,,,
,,,,,,,,,,,,,,,,,,,,,,
,,,,,,,,,,,,,,,,,,,,,,
,,,,,,,,,,,,,,,,,,,,,,
,,,,,,,,,,,,,,,,,,,,,,
,,,,,,,,,,,,,,,,,,,,,,
,,,,,,,,,,,,,,,,,,,,,,
,,,,,,,,,,,,,,,,,,,,,,
,,,,,,,,,,,,,,,,,,,,,,
,,,,,,,,,,,,,,,,,,,,,,
,,,,,,,,,,,,,,,,,,,,,,
,,,,,,,,,,,,,,,,,,,,,,
,,,,,,,,,,,,,,,,,,,,,,
,,,,,,,,,,,,,,,,,,,,,,
,,,,,,,,,,,,,,,,,,,,,,
,,,,,,,,,,,,,,,,,,,,,,
,,,,,,,,,,,,,,,,,,,,,,
,,,,,,,,,,,,,,,,,,,,,,
,,,,,,,,,,,,,,,,,,,,,,
,,,,,,,,,,,,,,,,,,,,,,
,,,,,,,,,,,,,,,,,,,,,,
,,,,,,,,,,,,,,,,,,,,,,
,,,,,,,,,,,,,,,,,,,,,,
,,,,,,,,,,,,,,,,,,,,,,
,,,,,,,,,,,,,,,,,,,,,,
,,,,,,,,,,,,,,,,,,,,,,
,,,,,,,,,,,,,,,,,,,,,,
,,,,,,,,,,,,,,,,,,,,,,
,,,,,,,,,,,,,,,,,,,,,,
,,,,,,,,,,,,,,,,,,,,,,
,,,,,,,,,,,,,,,,,,,,,,
,,,,,,,,,,,,,,,,,,,,,,
,,,,,,,,,,,,,,,,,,,,,,
,,,,,,,,,,,,,,,,,,,,,,
,,,,,,,,,,,,,,,,,,,,,,
,,,,,,,,,,,,,,,,,,,,,,
,,,,,,,,,,,,,,,,,,,,,,
,,,,,,,,,,,,,,,,,,,,,,
,,,,,,,,,,,,,,,,,,,,,,
,,,,,,,,,,,,,,,,,,,,,,
,,,,,,,,,,,,,,,,,,,,,,
,,,,,,,,,,,,,,,,,,,,,,
,,,,,,,,,,,,,,,,,,,,,,
,,,,,,,,,,,,,,,,,,,,,,
,,,,,,,,,,,,,,,,,,,,,,
,,,,,,,,,,,,,,,,,,,,,,
,,,,,,,,,,,,,,,,,,,,,,
,,,,,,,,,,,,,,,,,,,,,,
,,,,,,,,,,,,,,,,,,,,,,
,,,,,,,,,,,,,,,,,,,,,,
,,,,,,,,,,,,,,,,,,,,,,
,,,,,,,,,,,,,,,,,,,,,,
,,,,,,,,,,,,,,,,,,,,,,
,,,,,,,,,,,,,,,,,,,,,,
,,,,,,,,,,,,,,,,,,,,,,
,,,,,,,,,,,,,,,,,,,,,,
,,,,,,,,,,,,,,,,,,,,,,
,,,,,,,,,,,,,,,,,,,,,,
,,,,,,,,,,,,,,,,,,,,,,
,,,,,,,,,,,,,,,,,,,,,,
,,,,,,,,,,,,,,,,,,,,,,
,,,,,,,,,,,,,,,,,,,,,,
,,,,,,,,,,,,,,,,,,,,,,
,,,,,,,,,,,,,,,,,,,,,,
,,,,,,,,,,,,,,,,,,,,,,
,,,,,,,,,,,,,,,,,,,,,,
,,,,,,,,,,,,,,,,,,,,,,
,,,,,,,,,,,,,,,,,,,,,,
,,,,,,,,,,,,,,,,,,,,,,
,,,,,,,,,,,,,,,,,,,,,,
,,,,,,,,,,,,,,,,,,,,,,
,,,,,,,,,,,,,,,,,,,,,,
,,,,,,,,,,,,,,,,,,,,,,
,,,,,,,,,,,,,,,,,,,,,,
,,,,,,,,,,,,,,,,,,,,,,
,,,,,,,,,,,,,,,,,,,,,,
,,,,,,,,,,,,,,,,,,,,,,
,,,,,,,,,,,,,,,,,,,,,,
,,,,,,,,,,,,,,,,,,,,,,
,,,,,,,,,,,,,,,,,,,,,,
,,,,,,,,,,,,,,,,,,,,,,
,,,,,,,,,,,,,,,,,,,,,,
,,,,,,,,,,,,,,,,,,,,,,
,,,,,,,,,,,,,,,,,,,,,,
,,,,,,,,,,,,,,,,,,,,,,
,,,,,,,,,,,,,,,,,,,,,,
,,,,,,,,,,,,,,,,,,,,,,
,,,,,,,,,,,,,,,,,,,,,,
,,,,,,,,,,,,,,,,,,,,,,
,,,,,,,,,,,,,,,,,,,,,,
,,,,,,,,,,,,,,,,,,,,,,
,,,,,,,,,,,,,,,,,,,,,,
,,,,,,,,,,,,,,,,,,,,,,
,,,,,,,,,,,,,,,,,,,,,,
,,,,,,,,,,,,,,,,,,,,,,
,,,,,,,,,,,,,,,,,,,,,,
,,,,,,,,,,,,,,,,,,,,,,
,,,,,,,,,,,,,,,,,,,,,,
,,,,,,,,,,,,,,,,,,,,,,
,,,,,,,,,,,,,,,,,,,,,,
,,,,,,,,,,,,,,,,,,,,,,
,,,,,,,,,,,,,,,,,,,,,,
,,,,,,,,,,,,,,,,,,,,,,
,,,,,,,,,,,,,,,,,,,,,,
,,,,,,,,,,,,,,,,,,,,,,
,,,,,,,,,,,,,,,,,,,,,,
,,,,,,,,,,,,,,,,,,,,,,
,,,,,,,,,,,,,,,,,,,,,,
,,,,,,,,,,,,,,,,,,,,,,
,,,,,,,,,,,,,,,,,,,,,,
,,,,,,,,,,,,,,,,,,,,,,
,,,,,,,,,,,,,,,,,,,,,,
,,,,,,,,,,,,,,,,,,,,,,
,,,,,,,,,,,,,,,,,,,,,,
,,,,,,,,,,,,,,,,,,,,,,
,,,,,,,,,,,,,,,,,,,,,,
,,,,,,,,,,,,,,,,,,,,,,
,,,,,,,,,,,,,,,,,,,,,,
,,,,,,,,,,,,,,,,,,,,,,
,,,,,,,,,,,,,,,,,,,,,,
,,,,,,,,,,,,,,,,,,,,,,
,,,,,,,,,,,,,,,,,,,,,,
,,,,,,,,,,,,,,,,,,,,,,
,,,,,,,,,,,,,,,,,,,,,,
,,,,,,,,,,,,,,,,,,,,,,
,,,,,,,,,,,,,,,,,,,,,,
,,,,,,,,,,,,,,,,,,,,,,
,,,,,,,,,,,,,,,,,,,,,,
,,,,,,,,,,,,,,,,,,,,,,
,,,,,,,,,,,,,,,,,,,,,,
,,,,,,,,,,,,,,,,,,,,,,
,,,,,,,,,,,,,,,,,,,,,,
,,,,,,,,,,,,,,,,,,,,,,
,,,,,,,,,,,,,,,,,,,,,,
,,,,,,,,,,,,,,,,,,,,,,
,,,,,,,,,,,,,,,,,,,,,,
,,,,,,,,,,,,,,,,,,,,,,
,,,,,,,,,,,,,,,,,,,,,,
,,,,,,,,,,,,,,,,,,,,,,
,,,,,,,,,,,,,,,,,,,,,,
,,,,,,,,,,,,,,,,,,,,,,
,,,,,,,,,,,,,,,,,,,,,,
,,,,,,,,,,,,,,,,,,,,,,
,,,,,,,,,,,,,,,,,,,,,,
,,,,,,,,,,,,,,,,,,,,,,
,,,,,,,,,,,,,,,,,,,,,,
,,,,,,,,,,,,,,,,,,,,,,
,,,,,,,,,,,,,,,,,,,,,,
,,,,,,,,,,,,,,,,,,,,,,
,,,,,,,,,,,,,,,,,,,,,,
,,,,,,,,,,,,,,,,,,,,,,
,,,,,,,,,,,,,,,,,,,,,,
,,,,,,,,,,,,,,,,,,,,,,
,,,,,,,,,,,,,,,,,,,,,,
,,,,,,,,,,,,,,,,,,,,,,
,,,,,,,,,,,,,,,,,,,,,,
,,,,,,,,,,,,,,,,,,,,,,
,,,,,,,,,,,,,,,,,,,,,,
,,,,,,,,,,,,,,,,,,,,,,
,,,,,,,,,,,,,,,,,,,,,,
,,,,,,,,,,,,,,,,,,,,,,
,,,,,,,,,,,,,,,,,,,,,,
,,,,,,,,,,,,,,,,,,,,,,
,,,,,,,,,,,,,,,,,,,,,,
,,,,,,,,,,,,,,,,,,,,,,
,,,,,,,,,,,,,,,,,,,,,,
,,,,,,,,,,,,,,,,,,,,,,
,,,,,,,,,,,,,,,,,,,,,,
,,,,,,,,,,,,,,,,,,,,,,
,,,,,,,,,,,,,,,,,,,,,,
,,,,,,,,,,,,,,,,,,,,,,
,,,,,,,,,,,,,,,,,,,,,,
,,,,,,,,,,,,,,,,,,,,,,
,,,,,,,,,,,,,,,,,,,,,,
,,,,,,,,,,,,,,,,,,,,,,
,,,,,,,,,,,,,,,,,,,,,,
,,,,,,,,,,,,,,,,,,,,,,
,,,,,,,,,,,,,,,,,,,,,,
,,,,,,,,,,,,,,,,,,,,,,
,,,,,,,,,,,,,,,,,,,,,,
,,,,,,,,,,,,,,,,,,,,,,
,,,,,,,,,,,,,,,,,,,,,,
,,,,,,,,,,,,,,,,,,,,,,
,,,,,,,,,,,,,,,,,,,,,,
,,,,,,,,,,,,,,,,,,,,,,
,,,,,,,,,,,,,,,,,,,,,,
,,,,,,,,,,,,,,,,,,,,,,
,,,,,,,,,,,,,,,,,,,,,,
,,,,,,,,,,,,,,,,,,,,,,
,,,,,,,,,,,,,,,,,,,,,,
,,,,,,,,,,,,,,,,,,,,,,
,,,,,,,,,,,,,,,,,,,,,,
,,,,,,,,,,,,,,,,,,,,,,
,,,,,,,,,,,,,,,,,,,,,,
,,,,,,,,,,,,,,,,,,,,,,
,,,,,,,,,,,,,,,,,,,,,,
,,,,,,,,,,,,,,,,,,,,,,
,,,,,,,,,,,,,,,,,,,,,,
,,,,,,,,,,,,,,,,,,,,,,
,,,,,,,,,,,,,,,,,,,,,,
,,,,,,,,,,,,,,,,,,,,,,
,,,,,,,,,,,,,,,,,,,,,,
,,,,,,,,,,,,,,,,,,,,,,
,,,,,,,,,,,,,,,,,,,,,,
,,,,,,,,,,,,,,,,,,,,,,
,,,,,,,,,,,,,,,,,,,,,,
,,,,,,,,,,,,,,,,,,,,,,
,,,,,,,,,,,,,,,,,,,,,,
,,,,,,,,,,,,,,,,,,,,,,
,,,,,,,,,,,,,,,,,,,,,,
,,,,,,,,,,,,,,,,,,,,,,
,,,,,,,,,,,,,,,,,,,,,,
,,,,,,,,,,,,,,,,,,,,,,
,,,,,,,,,,,,,,,,,,,,,,
,,,,,,,,,,,,,,,,,,,,,,
,,,,,,,,,,,,,,,,,,,,,,
,,,,,,,,,,,,,,,,,,,,,,
,,,,,,,,,,,,,,,,,,,,,,
,,,,,,,,,,,,,,,,,,,,,,
,,,,,,,,,,,,,,,,,,,,,,
,,,,,,,,,,,,,,,,,,,,,,
,,,,,,,,,,,,,,,,,,,,,,
,,,,,,,,,,,,,,,,,,,,,,
,,,,,,,,,,,,,,,,,,,,,,
,,,,,,,,,,,,,,,,,,,,,,
,,,,,,,,,,,,,,,,,,,,,,
,,,,,,,,,,,,,,,,,,,,,,
,,,,,,,,,,,,,,,,,,,,,,
,,,,,,,,,,,,,,,,,,,,,,
,,,,,,,,,,,,,,,,,,,,,,
,,,,,,,,,,,,,,,,,,,,,,
,,,,,,,,,,,,,,,,,,,,,,
,,,,,,,,,,,,,,,,,,,,,,
,,,,,,,,,,,,,,,,,,,,,,
,,,,,,,,,,,,,,,,,,,,,,
,,,,,,,,,,,,,,,,,,,,,,
,,,,,,,,,,,,,,,,,,,,,,
,,,,,,,,,,,,,,,,,,,,,,
,,,,,,,,,,,,,,,,,,,,,,
,,,,,,,,,,,,,,,,,,,,,,
,,,,,,,,,,,,,,,,,,,,,,
,,,,,,,,,,,,,,,,,,,,,,
,,,,,,,,,,,,,,,,,,,,,,
,,,,,,,,,,,,,,,,,,,,,,
,,,,,,,,,,,,,,,,,,,,,,
,,,,,,,,,,,,,,,,,,,,,,
,,,,,,,,,,,,,,,,,,,,,,
,,,,,,,,,,,,,,,,,,,,,,
,,,,,,,,,,,,,,,,,,,,,,
,,,,,,,,,,,,,,,,,,,,,,
,,,,,,,,,,,,,,,,,,,,,,
,,,,,,,,,,,,,,,,,,,,,,
,,,,,,,,,,,,,,,,,,,,,,
,,,,,,,,,,,,,,,,,,,,,,
,,,,,,,,,,,,,,,,,,,,,,
,,,,,,,,,,,,,,,,,,,,,,
,,,,,,,,,,,,,,,,,,,,,,
,,,,,,,,,,,,,,,,,,,,,,
,,,,,,,,,,,,,,,,,,,,,,
,,,,,,,,,,,,,,,,,,,,,,
,,,,,,,,,,,,,,,,,,,,,,
,,,,,,,,,,,,,,,,,,,,,,
,,,,,,,,,,,,,,,,,,,,,,
,,,,,,,,,,,,,,,,,,,,,,
,,,,,,,,,,,,,,,,,,,,,,
,,,,,,,,,,,,,,,,,,,,,,
,,,,,,,,,,,,,,,,,,,,,,
,,,,,,,,,,,,,,,,,,,,,,
,,,,,,,,,,,,,,,,,,,,,,
,,,,,,,,,,,,,,,,,,,,,,
,,,,,,,,,,,,,,,,,,,,,,
,,,,,,,,,,,,,,,,,,,,,,
,,,,,,,,,,,,,,,,,,,,,,
,,,,,,,,,,,,,,,,,,,,,,
,,,,,,,,,,,,,,,,,,,,,,
,,,,,,,,,,,,,,,,,,,,,,
,,,,,,,,,,,,,,,,,,,,,,
,,,,,,,,,,,,,,,,,,,,,,
,,,,,,,,,,,,,,,,,,,,,,
,,,,,,,,,,,,,,,,,,,,,,